{"geoJSON":{"features":[{"type":"Feature","geometry":{"type":"MultiPolygon","coordinates":[[[[13.388396668,52.567666603],[13.387900128,52.567308841],[13.384545587,52.567734283],[13.384296467,52.567712206],[13.381159392,52.566421583],[13.378582808,52.566191555],[13.377145338,52.560660961],[13.370828997,52.560539653],[13.369999194,52.559969912],[13.366656388,52.558226436],[13.365101456,52.558116973],[13.36452292,52.56117559],[13.360094587,52.560471054],[13.359713132,52.561853214],[13.356894157,52.562015774],[13.349089578,52.561927652],[13.348711175,52.562070549],[13.337099082,52.564454708],[13.332236648,52.5618654],[13.331788286,52.561657595],[13.330919382,52.562149685],[13.326794755,52.562381945],[13.326419142,52.561672858],[13.32563289,52.561068767],[13.324966745,52.560800172],[13.323408573,52.560520306],[13.319226057,52.559979315],[13.317282058,52.559637257],[13.31254515,52.55849518],[13.309666607,52.557720958],[13.30376458,52.551455789],[13.3015138,52.548805794],[13.305077539,52.548716679],[13.312943285,52.548365747],[13.317931283,52.548235977],[13.319325032,52.54729602],[13.320283259,52.546442988],[13.323461845,52.54402751],[13.326231491,52.541873316],[13.327325229,52.541429458],[13.32714223,52.539731441],[13.32913327,52.538229423],[13.328282915,52.538006214],[13.311411631,52.535612495],[13.312552887,52.532640088],[13.313025495,52.531872992],[13.313393847,52.531880258],[13.317031824,52.532350843],[13.317304224,52.531543666],[13.31661137,52.53116262],[13.316744346,52.530903258],[13.313352338,52.530258976],[13.316644905,52.520962079],[13.317795272,52.520365685],[13.318778571,52.521114132],[13.31868495,52.522071855],[13.318940192,52.523073621],[13.319549682,52.52377346],[13.32001028,52.52406492],[13.321369986,52.524517763],[13.323250302,52.524687054],[13.324413362,52.52460376],[13.325186634,52.524424204],[13.326918226,52.52371687],[13.328897451,52.52233075],[13.329455919,52.521444284],[13.329489079,52.52046034],[13.329169762,52.519533023],[13.329154791,52.518696338],[13.329634168,52.517952557],[13.330122934,52.51756197],[13.331159181,52.517028065],[13.332280918,52.516702852],[13.334211691,52.516771442],[13.334791666,52.515502175],[13.335376308,52.51485838],[13.33613369,52.514374967],[13.335852122,52.513293193],[13.331875361,52.513029935],[13.330558399,52.512828942],[13.330976744,52.512386951],[13.333735632,52.511715326],[13.33340567,52.511276863],[13.332515715,52.510882841],[13.330042265,52.510074166],[13.333897601,52.508842722],[13.334403841,52.508905082],[13.334869262,52.508459598],[13.334844735,52.508160285],[13.333748229,52.506720624],[13.335390013,52.505881735],[13.336592844,52.505717539],[13.338637143,52.505919338],[13.339063871,52.505072942],[13.339714264,52.505156299],[13.341420063,52.504866561],[13.341499117,52.504939543],[13.351387026,52.50255096],[13.357517541,52.501104743],[13.362535886,52.499660225],[13.363043029,52.499560707],[13.368791895,52.498779859],[13.369527623,52.49886863],[13.37087315,52.499940947],[13.371428775,52.501637911],[13.373026912,52.503363172],[13.373604022,52.504161516],[13.374149275,52.503583945],[13.374976619,52.503376321],[13.377648566,52.507966913],[13.378937211,52.506928974],[13.392123204,52.507696329],[13.398551319,52.508098908],[13.399228927,52.508075948],[13.400188407,52.509375445],[13.402751015,52.508533788],[13.404436817,52.507771311],[13.405284415,52.508209646],[13.40802802,52.506178394],[13.409969839,52.506924254],[13.411523556,52.504889582],[13.414072152,52.504037127],[13.41490587,52.504917505],[13.417600042,52.504167425],[13.418210133,52.505015932],[13.418943331,52.505059458],[13.419429501,52.50564803],[13.421825498,52.505039318],[13.423227778,52.504980628],[13.424949923,52.505179482],[13.426706998,52.505798041],[13.427199486,52.505665872],[13.428816464,52.507978126],[13.429399982,52.508571312],[13.429118659,52.508903344],[13.428080064,52.50928623],[13.424498825,52.511379422],[13.422780399,52.512234689],[13.423841598,52.513367017],[13.425100523,52.515080202],[13.426751999,52.517957791],[13.426147505,52.518069998],[13.425925075,52.51839044],[13.426914796,52.519741889],[13.428399007,52.519584424],[13.429179818,52.521223072],[13.425567635,52.522792329],[13.426518722,52.522937722],[13.42650092,52.523289066],[13.425433555,52.523440028],[13.423701354,52.523988844],[13.419752883,52.525543865],[13.418248505,52.526177472],[13.415428141,52.52746114],[13.411310069,52.52862107],[13.41008762,52.528809355],[13.408155245,52.529231765],[13.405583269,52.529664635],[13.406083984,52.53060376],[13.405990269,52.530779721],[13.406420079,52.532346868],[13.408349443,52.534346344],[13.407485638,52.534688032],[13.405516727,52.538513519],[13.404703634,52.540183872],[13.403376952,52.540505405],[13.402025857,52.540126316],[13.400903688,52.541957427],[13.400244976,52.543363455],[13.399835812,52.544962267],[13.399207139,52.546530102],[13.400304743,52.546645434],[13.39923088,52.549067032],[13.398897155,52.550884355],[13.396844492,52.550702459],[13.39762654,52.551416601],[13.397979266,52.552194613],[13.398066026,52.552804962],[13.397305182,52.555653103],[13.397176259,52.556343014],[13.397096918,52.558267762],[13.39653414,52.560431511],[13.39590312,52.561819591],[13.394901824,52.562946336],[13.393389959,52.564403669],[13.388916453,52.566999953],[13.389051858,52.567323737],[13.388396668,52.567666603]]]]},"properties":{"gebietstyp":"BEZIRK","parentNr":"1100","gebietNr":"01","name":"Mitte","gebietId":"BEZIRK_01"},"id":"id","type":"Feature"},{"type":"Feature","geometry":{"type":"MultiPolygon","coordinates":[[[[13.472107453,52.520692874],[13.462692001,52.519927142],[13.455288392,52.521270027],[13.456154491,52.522455698],[13.45579906,52.522551343],[13.452412946,52.527524032],[13.452180545,52.527794182],[13.450781989,52.527485674],[13.447167587,52.526408162],[13.446476523,52.527136816],[13.442277165,52.531024202],[13.438745767,52.52877652],[13.438306566,52.528800086],[13.437481151,52.529546447],[13.425024775,52.528093445],[13.424853372,52.527876579],[13.423640538,52.527914046],[13.419752883,52.525543865],[13.423701354,52.523988844],[13.425433555,52.523440028],[13.42650092,52.523289066],[13.426518722,52.522937722],[13.425567635,52.522792329],[13.429179818,52.521223072],[13.428399007,52.519584424],[13.426914796,52.519741889],[13.425925075,52.51839044],[13.426147505,52.518069998],[13.426751999,52.517957791],[13.425100523,52.515080202],[13.423841598,52.513367017],[13.422780399,52.512234689],[13.424498825,52.511379422],[13.428080064,52.50928623],[13.429118659,52.508903344],[13.429399982,52.508571312],[13.428816464,52.507978126],[13.427199486,52.505665872],[13.426706998,52.505798041],[13.424949923,52.505179482],[13.423227778,52.504980628],[13.421825498,52.505039318],[13.419429501,52.50564803],[13.418943331,52.505059458],[13.418210133,52.505015932],[13.417600042,52.504167425],[13.41490587,52.504917505],[13.414072152,52.504037127],[13.411523556,52.504889582],[13.409969839,52.506924254],[13.40802802,52.506178394],[13.405284415,52.508209646],[13.404436817,52.507771311],[13.402751015,52.508533788],[13.400188407,52.509375445],[13.399228927,52.508075948],[13.398551319,52.508098908],[13.392123204,52.507696329],[13.378937211,52.506928974],[13.377648566,52.507966913],[13.374976619,52.503376321],[13.374149275,52.503583945],[13.373604022,52.504161516],[13.373026912,52.503363172],[13.371428775,52.501637911],[13.37087315,52.499940947],[13.369527623,52.49886863],[13.369598316,52.498108516],[13.368676364,52.497384883],[13.368410697,52.494473531],[13.368580109,52.493954472],[13.368212739,52.493329998],[13.369236643,52.493278896],[13.371072286,52.492911905],[13.371066456,52.492756557],[13.376429857,52.491675907],[13.376402526,52.491433252],[13.375472883,52.490453729],[13.375397891,52.48943314],[13.374728188,52.489379141],[13.373540289,52.487988084],[13.37416359,52.487710015],[13.374017674,52.485169177],[13.371641725,52.485182952],[13.371568002,52.48494914],[13.386266703,52.48486219],[13.386289424,52.485825605],[13.39425061,52.485770515],[13.394246189,52.484094496],[13.394638105,52.48402517],[13.40022643,52.48390479],[13.40404797,52.483273091],[13.406393863,52.482769735],[13.406762922,52.485213892],[13.407189352,52.485898567],[13.408527196,52.487142097],[13.40790377,52.488476362],[13.407885679,52.488859159],[13.420842682,52.487166854],[13.423678732,52.486356665],[13.424938195,52.487783201],[13.425409369,52.488085055],[13.420790672,52.495474012],[13.420482626,52.495857205],[13.422834961,52.495338258],[13.43094178,52.492699987],[13.438268972,52.490374455],[13.439251102,52.489641806],[13.439657767,52.489908454],[13.439890391,52.490599893],[13.440815355,52.491200758],[13.444955326,52.494406428],[13.445766827,52.494706926],[13.44742193,52.494662714],[13.447880565,52.494844938],[13.450906085,52.497105113],[13.451488208,52.497346817],[13.452671151,52.497574127],[13.45406415,52.497558193],[13.455070368,52.497420363],[13.459496921,52.496539718],[13.461934388,52.495584263],[13.463838256,52.495163628],[13.463965479,52.495001145],[13.46319688,52.494213756],[13.464213065,52.493739762],[13.467055516,52.492684106],[13.468492228,52.492339151],[13.471015769,52.491486071],[13.473786632,52.491032263],[13.476128209,52.489954173],[13.477683857,52.488782487],[13.477914664,52.488004534],[13.47863044,52.48703128],[13.479234141,52.487869589],[13.480055361,52.48793711],[13.481681584,52.487633568],[13.482051714,52.487441706],[13.482954249,52.486045384],[13.485945571,52.487400568],[13.487550417,52.487787992],[13.488499787,52.487834936],[13.490704766,52.487441179],[13.491451543,52.488265211],[13.488810405,52.489247997],[13.488459497,52.489887436],[13.486086371,52.490797683],[13.485772981,52.491198114],[13.484935451,52.49160331],[13.484143208,52.491657177],[13.473078759,52.498988101],[13.46857203,52.499649867],[13.46887503,52.500156213],[13.470202317,52.503742702],[13.471293543,52.505000456],[13.471746028,52.50573435],[13.472709957,52.506357475],[13.473066436,52.507126167],[13.475415941,52.509631158],[13.475826201,52.510256244],[13.476264493,52.510439228],[13.475631027,52.51305799],[13.475435312,52.513432478],[13.475885579,52.514861009],[13.477483939,52.514387647],[13.47774351,52.514728563],[13.476711319,52.515045383],[13.474196041,52.519115754],[13.473770396,52.519086448],[13.472554421,52.520526308],[13.472107453,52.520692874]]]]},"properties":{"gebietstyp":"BEZIRK","parentNr":"1100","gebietNr":"02","name":"Friedrichshain-Kreuzberg","gebietId":"BEZIRK_02"},"id":"id","type":"Feature"},{"type":"Feature","geometry":{"type":"MultiPolygon","coordinates":[[[[13.505174582,52.596463933],[13.498970701,52.605159429],[13.496659449,52.605026732],[13.497120588,52.606700934],[13.498509248,52.610741779],[13.499104795,52.611818551],[13.500227332,52.613618641],[13.501204782,52.615553951],[13.501945279,52.616828108],[13.503306407,52.618990766],[13.504614421,52.619588816],[13.505438065,52.619684916],[13.505854409,52.62573634],[13.507849551,52.626577385],[13.511389463,52.627785805],[13.514651069,52.628632748],[13.51781512,52.629563085],[13.518453885,52.631658399],[13.519739486,52.634427373],[13.520411398,52.635708537],[13.521057032,52.637492911],[13.521718965,52.638659032],[13.522440764,52.640758886],[13.522814833,52.643125328],[13.523021596,52.645033316],[13.520393694,52.644873736],[13.519941577,52.645497884],[13.519265824,52.646944082],[13.517161395,52.646561141],[13.515187172,52.646118076],[13.512825144,52.645397826],[13.511933148,52.645826518],[13.50679316,52.648548814],[13.504721829,52.649562168],[13.503160408,52.649964045],[13.490759046,52.654795957],[13.485357843,52.659423921],[13.488422689,52.670785388],[13.485217066,52.669638547],[13.483785761,52.669300744],[13.479934555,52.668108049],[13.477974476,52.667676062],[13.475832066,52.666545572],[13.475563418,52.66686784],[13.475695762,52.667497952],[13.47513089,52.667988786],[13.474529948,52.668220764],[13.476465989,52.671355871],[13.477261835,52.672069493],[13.479845921,52.674722791],[13.480083498,52.674856083],[13.47948405,52.675504154],[13.47727039,52.673900023],[13.475517621,52.675019299],[13.473553878,52.673442375],[13.470712201,52.671022246],[13.470522804,52.67107232],[13.465926538,52.667116682],[13.459553098,52.668974345],[13.455503564,52.665747863],[13.455215782,52.665633321],[13.450784519,52.662664931],[13.453944726,52.661849118],[13.454914663,52.661371553],[13.462382312,52.657537758],[13.473512343,52.656529995],[13.474261326,52.65575184],[13.474036855,52.654858306],[13.474062328,52.654331738],[13.47361309,52.653911495],[13.472175577,52.653409092],[13.470493275,52.652359078],[13.469966049,52.651862335],[13.469266361,52.651664608],[13.468762248,52.651732235],[13.467656029,52.651587874],[13.467073614,52.651651794],[13.465721889,52.651166501],[13.465024558,52.650737802],[13.463868945,52.650375868],[13.46305796,52.649923636],[13.462119297,52.648849365],[13.46041121,52.648475846],[13.459730103,52.648079489],[13.456451706,52.648413618],[13.456273071,52.648376518],[13.452084519,52.648698432],[13.452096904,52.649671675],[13.450976204,52.649849748],[13.447491405,52.650022468],[13.444910772,52.649500927],[13.443308959,52.649536205],[13.442771383,52.649122898],[13.44160751,52.649021339],[13.441545408,52.649382496],[13.440820443,52.649261843],[13.439788388,52.645265773],[13.439408739,52.645255289],[13.43569859,52.644661665],[13.434005716,52.644276108],[13.433821556,52.643822894],[13.433390148,52.641476743],[13.434257972,52.63795279],[13.432722787,52.637376957],[13.427630467,52.637510508],[13.424377843,52.635572929],[13.424353229,52.63546505],[13.420790286,52.637404476],[13.416548561,52.639433357],[13.414260479,52.641240941],[13.414749815,52.641779202],[13.414736552,52.642384862],[13.413628171,52.642466449],[13.412290683,52.643480401],[13.407884752,52.642685149],[13.406587756,52.643845589],[13.403892325,52.644861411],[13.403240617,52.645186392],[13.397905222,52.648112975],[13.397269703,52.64814949],[13.39638701,52.647422578],[13.394552758,52.647553798],[13.393907237,52.646690739],[13.393866378,52.646315925],[13.39334569,52.646155843],[13.392930735,52.645561925],[13.393172383,52.645406037],[13.392091096,52.644818889],[13.392019709,52.644354152],[13.392259004,52.643808252],[13.390669853,52.642617098],[13.389687558,52.641224944],[13.390244385,52.640695858],[13.390368799,52.639811844],[13.389611878,52.639371797],[13.389891209,52.639072209],[13.389465699,52.63881255],[13.389213348,52.637673467],[13.388639134,52.637599526],[13.388093523,52.6371554],[13.387615963,52.637237114],[13.386327713,52.636730373],[13.384243068,52.636271417],[13.383229412,52.636602737],[13.38183057,52.636339251],[13.382690588,52.635746124],[13.382858964,52.635216272],[13.380080829,52.634383778],[13.379399868,52.63386654],[13.378705902,52.634347661],[13.377683316,52.633388466],[13.376792412,52.632915704],[13.377120902,52.632550649],[13.376867521,52.632174483],[13.375956354,52.631635173],[13.37680147,52.630024793],[13.377022482,52.629336899],[13.376126838,52.628934215],[13.376195246,52.628333168],[13.375233736,52.628606118],[13.374571017,52.627766278],[13.373542958,52.627799135],[13.37297495,52.627444754],[13.371483544,52.62716028],[13.370705802,52.627322157],[13.369870682,52.626687707],[13.369508393,52.626012041],[13.36852889,52.625578564],[13.367966272,52.625574642],[13.367655092,52.626005311],[13.366913537,52.625792508],[13.366935359,52.625348626],[13.367302045,52.625021425],[13.367907195,52.624071084],[13.369517079,52.622256631],[13.371043105,52.620366489],[13.372448514,52.618374522],[13.373133993,52.617285036],[13.374284609,52.615664539],[13.375224462,52.61422511],[13.37571583,52.613236744],[13.376284419,52.611127928],[13.376352286,52.609319998],[13.376210725,52.607738083],[13.375766078,52.606989232],[13.37426571,52.604764443],[13.37165711,52.601025011],[13.371019321,52.600040927],[13.370145637,52.599077227],[13.368101151,52.597379961],[13.367843688,52.597243705],[13.360647002,52.591267078],[13.359126726,52.591092016],[13.355691341,52.590886511],[13.353690381,52.590897197],[13.351755076,52.590791178],[13.350193617,52.590603324],[13.347555653,52.590081321],[13.351384351,52.588022495],[13.352101543,52.587533499],[13.353324236,52.586898288],[13.357817604,52.58438607],[13.358813318,52.584169954],[13.359214078,52.583773658],[13.363449068,52.581432285],[13.364007987,52.581466775],[13.365278893,52.580605089],[13.368181286,52.578998387],[13.368141747,52.578948875],[13.371176994,52.57728937],[13.374273039,52.576047786],[13.375145729,52.575629974],[13.378158186,52.5736151],[13.378913522,52.573454203],[13.379037292,52.573065777],[13.379687901,52.572522273],[13.382204166,52.572025762],[13.38308202,52.572329023],[13.388260029,52.569475302],[13.387774676,52.56914391],[13.389281399,52.568240816],[13.388396668,52.567666603],[13.389051858,52.567323737],[13.388916453,52.566999953],[13.393389959,52.564403669],[13.394901824,52.562946336],[13.39590312,52.561819591],[13.39653414,52.560431511],[13.397096918,52.558267762],[13.397176259,52.556343014],[13.397305182,52.555653103],[13.398066026,52.552804962],[13.397979266,52.552194613],[13.39762654,52.551416601],[13.396844492,52.550702459],[13.398897155,52.550884355],[13.39923088,52.549067032],[13.400304743,52.546645434],[13.399207139,52.546530102],[13.399835812,52.544962267],[13.400244976,52.543363455],[13.400903688,52.541957427],[13.402025857,52.540126316],[13.403376952,52.540505405],[13.404703634,52.540183872],[13.405516727,52.538513519],[13.407485638,52.534688032],[13.408349443,52.534346344],[13.406420079,52.532346868],[13.405990269,52.530779721],[13.406083984,52.53060376],[13.405583269,52.529664635],[13.408155245,52.529231765],[13.41008762,52.528809355],[13.411310069,52.52862107],[13.415428141,52.52746114],[13.418248505,52.526177472],[13.419752883,52.525543865],[13.423640538,52.527914046],[13.424853372,52.527876579],[13.425024775,52.528093445],[13.437481151,52.529546447],[13.438306566,52.528800086],[13.438745767,52.52877652],[13.442277165,52.531024202],[13.446476523,52.527136816],[13.447167587,52.526408162],[13.450781989,52.527485674],[13.452180545,52.527794182],[13.452412946,52.527524032],[13.45579906,52.522551343],[13.456154491,52.522455698],[13.455288392,52.521270027],[13.462692001,52.519927142],[13.472107453,52.520692874],[13.471037025,52.521774345],[13.470298255,52.522378164],[13.468581536,52.5232979],[13.467094565,52.523816224],[13.466022568,52.524060106],[13.462753067,52.524503154],[13.460261632,52.525284201],[13.459114983,52.525766956],[13.458178444,52.526397378],[13.456196852,52.528263734],[13.456330434,52.528394231],[13.460672104,52.529355659],[13.46100244,52.529676041],[13.463248308,52.532398472],[13.463387435,52.532632313],[13.46444271,52.532988729],[13.464524452,52.533200922],[13.46695729,52.53405345],[13.467353591,52.534085436],[13.468742497,52.534710059],[13.467803086,52.536122376],[13.466381941,52.536654259],[13.467519254,52.538404561],[13.467310317,52.538494903],[13.469838386,52.540458518],[13.468701847,52.54352363],[13.467700077,52.546241494],[13.467525416,52.546693019],[13.46701556,52.54806973],[13.46736108,52.548319119],[13.468524503,52.548229915],[13.469541815,52.547773857],[13.479644039,52.54754663],[13.480456197,52.548120269],[13.4797602,52.549102305],[13.48008062,52.549468727],[13.481607853,52.549475998],[13.482220561,52.549644793],[13.485676753,52.552193919],[13.486113967,52.552396633],[13.490325212,52.551697014],[13.494414564,52.550795813],[13.495441443,52.552997735],[13.495671809,52.553863385],[13.495529832,52.555002709],[13.494904422,52.556081287],[13.491613388,52.55949962],[13.491073815,52.55994563],[13.489970675,52.560480854],[13.486974549,52.561357134],[13.485396124,52.56155027],[13.48518447,52.561795346],[13.485593896,52.562415899],[13.486067609,52.564150843],[13.483676269,52.564423867],[13.484097137,52.565610583],[13.484107771,52.565970052],[13.483594088,52.566115913],[13.487586752,52.569216487],[13.482923282,52.571474605],[13.482795609,52.572631003],[13.482026131,52.572493473],[13.479459036,52.572692509],[13.479790733,52.574511772],[13.480075193,52.575020755],[13.479913102,52.57541416],[13.47998811,52.577693207],[13.480210122,52.577913649],[13.479943258,52.579200173],[13.479733919,52.579600707],[13.479730174,52.581164339],[13.480008334,52.582248443],[13.480473234,52.583525087],[13.481612883,52.583314407],[13.481973554,52.584001408],[13.483563737,52.584075228],[13.484327344,52.585636187],[13.484644618,52.585616797],[13.485361881,52.58722474],[13.486005187,52.58801432],[13.486946442,52.588839509],[13.488408437,52.589785583],[13.489039231,52.590079516],[13.501818412,52.595121463],[13.505174582,52.596463933]]]]},"properties":{"gebietstyp":"BEZIRK","parentNr":"1100","gebietNr":"03","name":"Pankow","gebietId":"BEZIRK_03"},"id":"id","type":"Feature"},{"type":"Feature","geometry":{"type":"MultiPolygon","coordinates":[[[[13.3015138,52.548805794],[13.283401235,52.549098837],[13.272086575,52.549313511],[13.270590815,52.549427643],[13.270330565,52.549343285],[13.270299324,52.54865033],[13.270659322,52.547884862],[13.273365763,52.542941391],[13.273464578,52.542016072],[13.272304896,52.538865519],[13.273595545,52.538553049],[13.274388136,52.538226504],[13.275223638,52.537692491],[13.276027969,52.53644395],[13.276271658,52.535638578],[13.279774058,52.534602863],[13.282180528,52.534049132],[13.282039335,52.5332606],[13.281414361,52.531588179],[13.281241074,52.530573091],[13.280838361,52.530065073],[13.279078631,52.530290872],[13.277360135,52.529960498],[13.27621252,52.529370283],[13.275013681,52.528924587],[13.273324581,52.528797338],[13.269900382,52.52894972],[13.265799189,52.528818661],[13.263925929,52.528512782],[13.260926571,52.527542886],[13.259789407,52.527323687],[13.25573052,52.527089065],[13.253737249,52.527052245],[13.251208533,52.527083789],[13.249802041,52.527179069],[13.248564879,52.527459098],[13.247581869,52.527825301],[13.246678843,52.528312173],[13.246337969,52.527687409],[13.247124291,52.527234315],[13.24727751,52.525698102],[13.247696869,52.52456534],[13.247507751,52.524284353],[13.246136976,52.524518096],[13.24399594,52.525053082],[13.242241046,52.525569514],[13.240552098,52.525954032],[13.239824874,52.525880663],[13.238300683,52.526124598],[13.236445585,52.526131076],[13.233853235,52.526032633],[13.231272697,52.525768818],[13.230931395,52.525873719],[13.22817628,52.526017244],[13.22803319,52.52571032],[13.227300318,52.525612591],[13.225944629,52.525791334],[13.224057845,52.525880187],[13.22201594,52.526173374],[13.221816033,52.525640684],[13.220390702,52.523304677],[13.219891659,52.522621779],[13.219385658,52.521418531],[13.219343686,52.52085942],[13.21948802,52.518155849],[13.219836961,52.515785486],[13.220095398,52.514598345],[13.220945517,52.513619926],[13.219751312,52.513576284],[13.21945581,52.513992246],[13.218825252,52.513367301],[13.218468472,52.513401118],[13.217430505,52.512396425],[13.21675572,52.511939366],[13.216198648,52.511338926],[13.215849776,52.510684389],[13.214978493,52.509508607],[13.214083875,52.509099295],[13.213231127,52.509095419],[13.211859003,52.509346734],[13.211011046,52.508522381],[13.210493331,52.507198629],[13.20932913,52.505872595],[13.208759657,52.505045613],[13.209345491,52.504300893],[13.209725362,52.502909305],[13.205129443,52.501346417],[13.19907362,52.499879629],[13.19520366,52.499738863],[13.191697715,52.498675485],[13.189835883,52.497544391],[13.18945048,52.49497997],[13.18953114,52.492932206],[13.187545933,52.491209296],[13.186594839,52.489291599],[13.187146394,52.487126961],[13.189809161,52.484332982],[13.190164702,52.482616939],[13.187246969,52.478652888],[13.188293212,52.474082542],[13.188168363,52.471835404],[13.193910602,52.471085497],[13.194557707,52.470975529],[13.195229035,52.471247581],[13.196618804,52.471338916],[13.196992784,52.47116773],[13.197718911,52.470345387],[13.197618935,52.469730334],[13.198089459,52.469010407],[13.199148593,52.468743741],[13.200634877,52.46904297],[13.201558435,52.469864983],[13.202207528,52.470156686],[13.203548053,52.470470633],[13.205094181,52.470521987],[13.207706552,52.470021725],[13.210168428,52.46971319],[13.211470386,52.469438282],[13.213226532,52.469530707],[13.214227426,52.46981908],[13.216536429,52.470120078],[13.221591076,52.469975739],[13.223776252,52.469984103],[13.225518761,52.470124827],[13.226782168,52.470360064],[13.228679308,52.47049048],[13.230205961,52.470747236],[13.231464088,52.470755042],[13.233875766,52.47011963],[13.235098289,52.46965997],[13.236679164,52.469443223],[13.247801095,52.467544542],[13.252629865,52.46674482],[13.255608009,52.466750608],[13.259091543,52.466497279],[13.260278358,52.46692783],[13.260852743,52.467397815],[13.261622164,52.467772242],[13.2623143,52.467171369],[13.263549193,52.4669505],[13.272729778,52.467980989],[13.278331252,52.468638635],[13.278724954,52.468535548],[13.281090154,52.468847133],[13.282915087,52.46919125],[13.289080839,52.470526462],[13.289881802,52.469890691],[13.290174248,52.470328277],[13.297701617,52.468896308],[13.306370183,52.467486729],[13.307470944,52.467878829],[13.308564616,52.467418962],[13.309105519,52.467706192],[13.310308083,52.467037211],[13.311421356,52.467122862],[13.319980284,52.466979116],[13.320093069,52.469597231],[13.320525488,52.470264265],[13.320141032,52.470743158],[13.320426965,52.477468633],[13.322435818,52.477489095],[13.332866888,52.477414819],[13.332984709,52.477845573],[13.337064134,52.478130621],[13.337047012,52.48208651],[13.33711772,52.48252703],[13.337085281,52.485676776],[13.337129938,52.487845367],[13.33690557,52.489282682],[13.336958867,52.490358515],[13.337530695,52.490714887],[13.337084162,52.491007658],[13.337100792,52.492287398],[13.337348201,52.494073651],[13.337280572,52.495854639],[13.33781678,52.497389969],[13.338988874,52.499417509],[13.338920862,52.499910707],[13.336974943,52.500689589],[13.337141394,52.500905674],[13.341420063,52.504866561],[13.339714264,52.505156299],[13.339063871,52.505072942],[13.338637143,52.505919338],[13.336592844,52.505717539],[13.335390013,52.505881735],[13.333748229,52.506720624],[13.334844735,52.508160285],[13.334869262,52.508459598],[13.334403841,52.508905082],[13.333897601,52.508842722],[13.330042265,52.510074166],[13.332515715,52.510882841],[13.33340567,52.511276863],[13.333735632,52.511715326],[13.330976744,52.512386951],[13.330558399,52.512828942],[13.331875361,52.513029935],[13.335852122,52.513293193],[13.33613369,52.514374967],[13.335376308,52.51485838],[13.334791666,52.515502175],[13.334211691,52.516771442],[13.332280918,52.516702852],[13.331159181,52.517028065],[13.330122934,52.51756197],[13.329634168,52.517952557],[13.329154791,52.518696338],[13.329169762,52.519533023],[13.329489079,52.52046034],[13.329455919,52.521444284],[13.328897451,52.52233075],[13.326918226,52.52371687],[13.325186634,52.524424204],[13.324413362,52.52460376],[13.323250302,52.524687054],[13.321369986,52.524517763],[13.32001028,52.52406492],[13.319549682,52.52377346],[13.318940192,52.523073621],[13.31868495,52.522071855],[13.318778571,52.521114132],[13.317795272,52.520365685],[13.316644905,52.520962079],[13.313352338,52.530258976],[13.316744346,52.530903258],[13.31661137,52.53116262],[13.317304224,52.531543666],[13.317031824,52.532350843],[13.313393847,52.531880258],[13.313025495,52.531872992],[13.312552887,52.532640088],[13.311411631,52.535612495],[13.328282915,52.538006214],[13.32913327,52.538229423],[13.32714223,52.539731441],[13.327325229,52.541429458],[13.326231491,52.541873316],[13.323461845,52.54402751],[13.320283259,52.546442988],[13.319325032,52.54729602],[13.317931283,52.548235977],[13.312943285,52.548365747],[13.305077539,52.548716679],[13.3015138,52.548805794]]]]},"properties":{"gebietstyp":"BEZIRK","parentNr":"1100","gebietNr":"04","name":"Charlottenburg-Wilmersdorf","gebietId":"BEZIRK_04"},"id":"id","type":"Feature"},{"type":"Feature","geometry":{"type":"MultiPolygon","coordinates":[[[[13.217393859,52.587475347],[13.211241363,52.588226764],[13.207341662,52.588373879],[13.206712386,52.586595918],[13.20537612,52.58685178],[13.202553979,52.587877851],[13.200342441,52.588765865],[13.19847798,52.589006268],[13.196628565,52.58951629],[13.193755526,52.589829338],[13.191733386,52.590189477],[13.190858516,52.590472032],[13.189112521,52.591398394],[13.186709012,52.592107511],[13.185624379,52.592551904],[13.184470969,52.593376159],[13.183420062,52.593690353],[13.181214924,52.594025364],[13.178337433,52.594879009],[13.17685243,52.59491921],[13.174728394,52.595106131],[13.173666515,52.595328535],[13.171966861,52.596286274],[13.170074138,52.596785832],[13.167897965,52.597007478],[13.164530556,52.598793486],[13.157057439,52.597623712],[13.153885789,52.595712248],[13.152233481,52.594158164],[13.149092574,52.59176861],[13.143338706,52.589655007],[13.141717679,52.589331158],[13.139339228,52.589051801],[13.137900037,52.588701687],[13.135993008,52.587569588],[13.135474452,52.587364344],[13.132659786,52.586919488],[13.131073539,52.586929037],[13.128959399,52.587300304],[13.128429491,52.586017494],[13.129346698,52.58593328],[13.127960647,52.583127246],[13.129540573,52.583273179],[13.130257302,52.583038042],[13.131075412,52.581662033],[13.131680278,52.580222221],[13.132070338,52.579776321],[13.13260639,52.57959703],[13.135399783,52.58005528],[13.136030628,52.580105524],[13.137514445,52.580528637],[13.139155022,52.580388022],[13.140045925,52.580801471],[13.142030109,52.58134161],[13.14383778,52.581570062],[13.144630842,52.582032504],[13.149610397,52.58335661],[13.149882643,52.582876927],[13.151241346,52.582203006],[13.151307792,52.581652398],[13.151928803,52.580568417],[13.152324212,52.580154822],[13.153157499,52.578944076],[13.153202834,52.578296328],[13.153593907,52.577460345],[13.153446386,52.57677588],[13.15366963,52.575770279],[13.153495349,52.575379566],[13.153690633,52.574778248],[13.153460088,52.574544576],[13.15354478,52.573254446],[13.152774298,52.572482117],[13.152861973,52.571600887],[13.152386067,52.570460386],[13.151262882,52.569985886],[13.151181937,52.569151609],[13.150367302,52.567972894],[13.14986424,52.566762177],[13.148133767,52.565185245],[13.147511065,52.564406288],[13.147380306,52.562467357],[13.147137751,52.561450893],[13.146017583,52.560861326],[13.146264331,52.559331914],[13.14685162,52.558618066],[13.146926319,52.557042123],[13.147284496,52.555835778],[13.147222067,52.55493507],[13.14690485,52.554279562],[13.146576565,52.5540985],[13.145847738,52.552929085],[13.145237403,52.55252131],[13.144582536,52.552545604],[13.144217199,52.552115457],[13.143209181,52.552078095],[13.141370176,52.552458756],[13.137773812,52.552571605],[13.136324538,52.552704904],[13.134444923,52.553349531],[13.133559459,52.553951543],[13.132481077,52.554924787],[13.131020405,52.555799367],[13.130497571,52.556008362],[13.129930322,52.554927593],[13.127975153,52.55038564],[13.126487108,52.547190019],[13.125642508,52.545499662],[13.124960312,52.543792015],[13.125601434,52.543540409],[13.124304193,52.539546654],[13.123100962,52.536630777],[13.121703365,52.534870635],[13.121195482,52.533282328],[13.120347018,52.532224571],[13.119964444,52.531534558],[13.119500844,52.530331959],[13.119245097,52.529380078],[13.118914695,52.526342078],[13.118504343,52.523213865],[13.118361327,52.521180473],[13.117788255,52.5186276],[13.117380647,52.517058575],[13.11926691,52.517002873],[13.122803868,52.517393626],[13.125152163,52.517515036],[13.126994718,52.517547094],[13.130084799,52.517992358],[13.132607579,52.518191637],[13.133570273,52.51839156],[13.135836979,52.518702934],[13.137427931,52.518844321],[13.138528567,52.519095999],[13.141459001,52.519610402],[13.142671243,52.519764544],[13.14318321,52.519695642],[13.144351115,52.519190866],[13.144815477,52.518624803],[13.14503974,52.518055064],[13.145629558,52.517465243],[13.147497526,52.517193337],[13.15182125,52.515549136],[13.154379816,52.514330004],[13.157376538,52.513172764],[13.15858543,52.512937609],[13.160260575,52.512348409],[13.163383374,52.51108008],[13.168821555,52.509226638],[13.167974108,52.508854903],[13.166644347,52.507845932],[13.161190698,52.504200289],[13.158580503,52.502589469],[13.152470743,52.498184144],[13.1512212,52.497307422],[13.149587186,52.496314107],[13.146201503,52.493659222],[13.140255346,52.489056208],[13.131626931,52.482348694],[13.128330285,52.479819474],[13.126275471,52.47865511],[13.123966365,52.47824631],[13.122167718,52.477993316],[13.118351069,52.477369476],[13.117687861,52.477318994],[13.117512657,52.47438947],[13.117231135,52.473278398],[13.116203289,52.471677027],[13.113785157,52.469798227],[13.113950444,52.468617189],[13.111852481,52.467444296],[13.110553465,52.465655667],[13.111425052,52.463721029],[13.111336392,52.461862186],[13.11049898,52.459994684],[13.112402657,52.458992867],[13.112669364,52.457692746],[13.112169328,52.455531956],[13.112027865,52.454416085],[13.111654441,52.453639801],[13.11107303,52.45278802],[13.109904841,52.451549041],[13.109297773,52.450632434],[13.11535975,52.445650476],[13.116624238,52.445172448],[13.119012864,52.444008155],[13.119016087,52.442959414],[13.119926769,52.441519146],[13.123117664,52.4396141],[13.124114401,52.440675184],[13.126875291,52.441143411],[13.128040596,52.440961406],[13.129479357,52.441308061],[13.130801738,52.441412468],[13.13171849,52.441099973],[13.133267785,52.442086903],[13.136085227,52.442379011],[13.148516152,52.443372633],[13.15451297,52.446596009],[13.157954519,52.449377616],[13.161724798,52.452133454],[13.166059385,52.454001682],[13.170844916,52.456112338],[13.177408008,52.455914585],[13.181213097,52.459622525],[13.185301487,52.462577412],[13.186361224,52.465636846],[13.188168363,52.471835404],[13.188293212,52.474082542],[13.187246969,52.478652888],[13.190164702,52.482616939],[13.189809161,52.484332982],[13.187146394,52.487126961],[13.186594839,52.489291599],[13.187545933,52.491209296],[13.18953114,52.492932206],[13.18945048,52.49497997],[13.189835883,52.497544391],[13.191697715,52.498675485],[13.19520366,52.499738863],[13.19907362,52.499879629],[13.205129443,52.501346417],[13.209725362,52.502909305],[13.209345491,52.504300893],[13.208759657,52.505045613],[13.20932913,52.505872595],[13.210493331,52.507198629],[13.211011046,52.508522381],[13.211859003,52.509346734],[13.213231127,52.509095419],[13.214083875,52.509099295],[13.214978493,52.509508607],[13.215849776,52.510684389],[13.216198648,52.511338926],[13.21675572,52.511939366],[13.217430505,52.512396425],[13.218468472,52.513401118],[13.218825252,52.513367301],[13.21945581,52.513992246],[13.219751312,52.513576284],[13.220945517,52.513619926],[13.220095398,52.514598345],[13.219836961,52.515785486],[13.21948802,52.518155849],[13.219343686,52.52085942],[13.219385658,52.521418531],[13.219891659,52.522621779],[13.220390702,52.523304677],[13.221816033,52.525640684],[13.22201594,52.526173374],[13.224057845,52.525880187],[13.225944629,52.525791334],[13.227300318,52.525612591],[13.22803319,52.52571032],[13.22817628,52.526017244],[13.230931395,52.525873719],[13.231272697,52.525768818],[13.233853235,52.526032633],[13.236445585,52.526131076],[13.238300683,52.526124598],[13.239824874,52.525880663],[13.240552098,52.525954032],[13.242241046,52.525569514],[13.24399594,52.525053082],[13.246136976,52.524518096],[13.247507751,52.524284353],[13.247696869,52.52456534],[13.24727751,52.525698102],[13.247124291,52.527234315],[13.246337969,52.527687409],[13.246678843,52.528312173],[13.247581869,52.527825301],[13.248564879,52.527459098],[13.249802041,52.527179069],[13.251208533,52.527083789],[13.253737249,52.527052245],[13.25573052,52.527089065],[13.259789407,52.527323687],[13.260926571,52.527542886],[13.263925929,52.528512782],[13.265799189,52.528818661],[13.269900382,52.52894972],[13.273324581,52.528797338],[13.275013681,52.528924587],[13.27621252,52.529370283],[13.277360135,52.529960498],[13.279078631,52.530290872],[13.280838361,52.530065073],[13.281241074,52.530573091],[13.281414361,52.531588179],[13.282039335,52.5332606],[13.282180528,52.534049132],[13.279774058,52.534602863],[13.276271658,52.535638578],[13.276027969,52.53644395],[13.275223638,52.537692491],[13.274388136,52.538226504],[13.273595545,52.538553049],[13.272304896,52.538865519],[13.273464578,52.542016072],[13.273365763,52.542941391],[13.270659322,52.547884862],[13.270299324,52.54865033],[13.270330565,52.549343285],[13.262766933,52.54946316],[13.258371401,52.549574477],[13.256944966,52.549678768],[13.254243358,52.550127713],[13.252987512,52.550451763],[13.250590239,52.551332939],[13.249003224,52.552101628],[13.241113803,52.556023978],[13.238945021,52.557016197],[13.238950389,52.557243574],[13.238134395,52.55747994],[13.233153405,52.559975223],[13.232010577,52.560637321],[13.231186826,52.561233075],[13.230728224,52.561396894],[13.228325423,52.563098071],[13.227994904,52.563444737],[13.227998706,52.564163672],[13.228557734,52.56512801],[13.228710587,52.565674006],[13.228518246,52.566394079],[13.227042416,52.567808078],[13.226723294,52.569328418],[13.225298977,52.571221551],[13.225178781,52.571785497],[13.225264223,52.572604458],[13.225076396,52.573143911],[13.22391768,52.574201282],[13.222037599,52.574938057],[13.220238033,52.576053411],[13.218855951,52.577156696],[13.217958009,52.57853932],[13.218007691,52.579700548],[13.218305785,52.580959687],[13.21807984,52.581460355],[13.2172036,52.58240181],[13.216159756,52.582960752],[13.215428601,52.583526162],[13.215168765,52.584332247],[13.215358062,52.584757067],[13.216430602,52.585712458],[13.217393859,52.587475347]]]]},"properties":{"gebietstyp":"BEZIRK","parentNr":"1100","gebietNr":"05","name":"Spandau","gebietId":"BEZIRK_05"},"id":"id","type":"Feature"},{"type":"Feature","geometry":{"type":"MultiPolygon","coordinates":[[[[13.319980284,52.466979116],[13.311421356,52.467122862],[13.310308083,52.467037211],[13.309105519,52.467706192],[13.308564616,52.467418962],[13.307470944,52.467878829],[13.306370183,52.467486729],[13.297701617,52.468896308],[13.290174248,52.470328277],[13.289881802,52.469890691],[13.289080839,52.470526462],[13.282915087,52.46919125],[13.281090154,52.468847133],[13.278724954,52.468535548],[13.278331252,52.468638635],[13.272729778,52.467980989],[13.263549193,52.4669505],[13.2623143,52.467171369],[13.261622164,52.467772242],[13.260852743,52.467397815],[13.260278358,52.46692783],[13.259091543,52.466497279],[13.255608009,52.466750608],[13.252629865,52.46674482],[13.247801095,52.467544542],[13.236679164,52.469443223],[13.235098289,52.46965997],[13.233875766,52.47011963],[13.231464088,52.470755042],[13.230205961,52.470747236],[13.228679308,52.47049048],[13.226782168,52.470360064],[13.225518761,52.470124827],[13.223776252,52.469984103],[13.221591076,52.469975739],[13.216536429,52.470120078],[13.214227426,52.46981908],[13.213226532,52.469530707],[13.211470386,52.469438282],[13.210168428,52.46971319],[13.207706552,52.470021725],[13.205094181,52.470521987],[13.203548053,52.470470633],[13.202207528,52.470156686],[13.201558435,52.469864983],[13.200634877,52.46904297],[13.199148593,52.468743741],[13.198089459,52.469010407],[13.197618935,52.469730334],[13.197718911,52.470345387],[13.196992784,52.47116773],[13.196618804,52.471338916],[13.195229035,52.471247581],[13.194557707,52.470975529],[13.193910602,52.471085497],[13.188168363,52.471835404],[13.186361224,52.465636846],[13.185301487,52.462577412],[13.181213097,52.459622525],[13.177408008,52.455914585],[13.170844916,52.456112338],[13.166059385,52.454001682],[13.161724798,52.452133454],[13.157954519,52.449377616],[13.15451297,52.446596009],[13.148516152,52.443372633],[13.136085227,52.442379011],[13.133267785,52.442086903],[13.13171849,52.441099973],[13.130801738,52.441412468],[13.129479357,52.441308061],[13.128040596,52.440961406],[13.126875291,52.441143411],[13.124114401,52.440675184],[13.123117664,52.4396141],[13.123151522,52.43870748],[13.12213751,52.437877274],[13.117214916,52.436163062],[13.113927338,52.432964839],[13.112070587,52.432308827],[13.112780182,52.429195296],[13.108019978,52.426659111],[13.106913151,52.425643238],[13.105404686,52.425281619],[13.104565911,52.423982023],[13.103483131,52.424300762],[13.101596029,52.424634795],[13.100947353,52.425161235],[13.099970776,52.425445366],[13.09930899,52.425342663],[13.098397093,52.424887455],[13.097720241,52.423464515],[13.09583593,52.42197325],[13.088345531,52.419629778],[13.090208163,52.41354788],[13.090271382,52.412212726],[13.090764297,52.411558024],[13.092121661,52.411240643],[13.093408726,52.410535597],[13.097388516,52.409419343],[13.098697331,52.410328369],[13.098851045,52.4111172],[13.097604242,52.411779348],[13.096445202,52.413086232],[13.096808308,52.413201093],[13.100302181,52.413781968],[13.100855069,52.413758367],[13.10072461,52.412987617],[13.10111763,52.411574839],[13.100997703,52.410536329],[13.10462082,52.409740871],[13.105120115,52.409895851],[13.105911921,52.409546159],[13.106543144,52.409604655],[13.107129752,52.409958619],[13.107215118,52.411199175],[13.107410455,52.412086133],[13.107102217,52.413179373],[13.107773547,52.413331502],[13.109624072,52.412937897],[13.110132774,52.41128475],[13.111508323,52.411412073],[13.111794015,52.41047779],[13.110419963,52.410350477],[13.110626026,52.409441011],[13.108501908,52.4092421],[13.106929595,52.409483235],[13.106550062,52.408766216],[13.10678936,52.408661224],[13.108604971,52.408472381],[13.109446128,52.408044696],[13.108322407,52.407253429],[13.109691552,52.406534187],[13.11109903,52.405295657],[13.111200778,52.404507956],[13.111813732,52.403983999],[13.116335069,52.402321267],[13.117745025,52.402117053],[13.118458449,52.401278954],[13.12022768,52.399847755],[13.121998281,52.398544147],[13.124203286,52.397272015],[13.124776425,52.396868245],[13.125655857,52.396659885],[13.126917404,52.396568166],[13.128457237,52.396943126],[13.132519313,52.39866228],[13.133504673,52.399363772],[13.134958961,52.398591569],[13.136631629,52.398127604],[13.138097948,52.397854182],[13.138039619,52.397681394],[13.135123812,52.39737364],[13.13570863,52.396172732],[13.138577573,52.396097963],[13.138223073,52.395701452],[13.134487548,52.39368459],[13.131740999,52.391796671],[13.131527274,52.391730172],[13.130160287,52.390495937],[13.129848144,52.390693226],[13.130908597,52.391751844],[13.129370233,52.391652819],[13.127290716,52.39160541],[13.126728906,52.389582792],[13.130748989,52.387378172],[13.131982734,52.387515447],[13.133177798,52.387302061],[13.13397266,52.388733387],[13.132867985,52.388741361],[13.130373252,52.390367421],[13.132092398,52.391768485],[13.134701915,52.393562363],[13.138387801,52.395551153],[13.140426717,52.396370169],[13.14182168,52.397104731],[13.141989259,52.396961629],[13.143198201,52.39724517],[13.143278815,52.396724263],[13.143855241,52.396137082],[13.145735244,52.395503083],[13.150017705,52.39508726],[13.153284653,52.394837969],[13.158864855,52.393938129],[13.167959367,52.394388958],[13.168764361,52.394392978],[13.171754267,52.395640213],[13.171303886,52.397578738],[13.171163258,52.397824435],[13.16873814,52.39735404],[13.161244348,52.396625599],[13.157791855,52.396353137],[13.157775277,52.397224794],[13.159383603,52.399905643],[13.159231389,52.402771836],[13.159346569,52.402856768],[13.163942832,52.40438373],[13.167330866,52.405549951],[13.173039398,52.407426871],[13.187834998,52.412370642],[13.191521805,52.413618157],[13.19666979,52.415312132],[13.197252604,52.415532628],[13.199442256,52.415407558],[13.201335541,52.41553301],[13.204507335,52.415831058],[13.209485472,52.416756394],[13.21196354,52.417381607],[13.213034291,52.417774486],[13.214215073,52.418033836],[13.216368415,52.418820483],[13.217094258,52.419166295],[13.21804399,52.419303484],[13.221411315,52.42012029],[13.223588212,52.420766692],[13.225056783,52.421076342],[13.225264751,52.420836203],[13.226476053,52.420825931],[13.229245181,52.420519836],[13.233140525,52.420343246],[13.235633222,52.420870054],[13.237622678,52.420794838],[13.239677004,52.420864488],[13.245949413,52.42117243],[13.247144864,52.418898127],[13.247442096,52.417317408],[13.248504192,52.413944478],[13.249031341,52.411760577],[13.248968187,52.408828885],[13.248736679,52.408405767],[13.249145081,52.407902912],[13.249776879,52.404978829],[13.251168396,52.405497302],[13.253306261,52.406033396],[13.254502324,52.406213308],[13.257135456,52.406398608],[13.258965447,52.40633242],[13.260269002,52.406134265],[13.261361599,52.405857259],[13.263593399,52.404990618],[13.264624235,52.404713392],[13.266962591,52.404280177],[13.270054873,52.404187097],[13.271996336,52.404315158],[13.27419661,52.404788154],[13.275812632,52.405195569],[13.277069859,52.405825674],[13.280347846,52.407362178],[13.290166445,52.412817652],[13.290366552,52.412979983],[13.293223409,52.414558066],[13.295529265,52.415749902],[13.296750866,52.416251555],[13.297089993,52.415767744],[13.296719945,52.414738625],[13.295928081,52.414500958],[13.297553618,52.412913039],[13.301088426,52.409674106],[13.303784853,52.407280233],[13.30827714,52.402967976],[13.309510492,52.401653828],[13.311287201,52.399952888],[13.312060169,52.399103],[13.313806329,52.400449363],[13.318993968,52.402592848],[13.320842275,52.403241099],[13.326929939,52.405587863],[13.328995341,52.406328201],[13.33572067,52.408819003],[13.338900168,52.410026519],[13.342209966,52.41133761],[13.343306777,52.411718586],[13.343066852,52.412236548],[13.34309237,52.413299744],[13.342741456,52.414164328],[13.345971054,52.415441869],[13.348420376,52.416254669],[13.350813057,52.416972925],[13.352396477,52.417607479],[13.355176295,52.418493698],[13.358831042,52.419823085],[13.360287577,52.420572276],[13.363201795,52.421409181],[13.364157807,52.42230459],[13.367914839,52.427607861],[13.36855873,52.427611964],[13.371151064,52.428796655],[13.371593218,52.429114841],[13.371203505,52.429898542],[13.369437948,52.432652745],[13.367531537,52.435819103],[13.366098089,52.438531743],[13.364233508,52.441504922],[13.362379878,52.444572456],[13.361110434,52.446815394],[13.3597049,52.449408491],[13.357257062,52.45332564],[13.35729163,52.45344614],[13.356456321,52.454855148],[13.356116309,52.455609254],[13.354196393,52.455639895],[13.353679392,52.456699134],[13.353297854,52.457021775],[13.352475184,52.457073791],[13.350889237,52.456618073],[13.349075882,52.456772896],[13.349041319,52.458761572],[13.348395472,52.458762751],[13.347551066,52.458989023],[13.347820147,52.45924488],[13.34495471,52.461717521],[13.342617031,52.463295387],[13.338901904,52.465563636],[13.338483132,52.466377709],[13.33627214,52.46741386],[13.334827847,52.4661989],[13.334661069,52.466275775],[13.331409111,52.465856112],[13.330601145,52.465222327],[13.3293643,52.465572401],[13.328164676,52.464331013],[13.327869267,52.464499216],[13.320989817,52.466961061],[13.319980284,52.466979116]]]]},"properties":{"gebietstyp":"BEZIRK","parentNr":"1100","gebietNr":"06","name":"Steglitz-Zehlendorf","gebietId":"BEZIRK_06"},"id":"id","type":"Feature"},{"type":"Feature","geometry":{"type":"MultiPolygon","coordinates":[[[[13.369527623,52.49886863],[13.368791895,52.498779859],[13.363043029,52.499560707],[13.362535886,52.499660225],[13.357517541,52.501104743],[13.351387026,52.50255096],[13.341499117,52.504939543],[13.341420063,52.504866561],[13.337141394,52.500905674],[13.336974943,52.500689589],[13.338920862,52.499910707],[13.338988874,52.499417509],[13.33781678,52.497389969],[13.337280572,52.495854639],[13.337348201,52.494073651],[13.337100792,52.492287398],[13.337084162,52.491007658],[13.337530695,52.490714887],[13.336958867,52.490358515],[13.33690557,52.489282682],[13.337129938,52.487845367],[13.337085281,52.485676776],[13.33711772,52.48252703],[13.337047012,52.48208651],[13.337064134,52.478130621],[13.332984709,52.477845573],[13.332866888,52.477414819],[13.322435818,52.477489095],[13.320426965,52.477468633],[13.320141032,52.470743158],[13.320525488,52.470264265],[13.320093069,52.469597231],[13.319980284,52.466979116],[13.320989817,52.466961061],[13.327869267,52.464499216],[13.328164676,52.464331013],[13.3293643,52.465572401],[13.330601145,52.465222327],[13.331409111,52.465856112],[13.334661069,52.466275775],[13.334827847,52.4661989],[13.33627214,52.46741386],[13.338483132,52.466377709],[13.338901904,52.465563636],[13.342617031,52.463295387],[13.34495471,52.461717521],[13.347820147,52.45924488],[13.347551066,52.458989023],[13.348395472,52.458762751],[13.349041319,52.458761572],[13.349075882,52.456772896],[13.350889237,52.456618073],[13.352475184,52.457073791],[13.353297854,52.457021775],[13.353679392,52.456699134],[13.354196393,52.455639895],[13.356116309,52.455609254],[13.356456321,52.454855148],[13.35729163,52.45344614],[13.357257062,52.45332564],[13.3597049,52.449408491],[13.361110434,52.446815394],[13.362379878,52.444572456],[13.364233508,52.441504922],[13.366098089,52.438531743],[13.367531537,52.435819103],[13.369437948,52.432652745],[13.371203505,52.429898542],[13.371593218,52.429114841],[13.371151064,52.428796655],[13.36855873,52.427611964],[13.367914839,52.427607861],[13.364157807,52.42230459],[13.363201795,52.421409181],[13.360287577,52.420572276],[13.358831042,52.419823085],[13.355176295,52.418493698],[13.352396477,52.417607479],[13.350813057,52.416972925],[13.348420376,52.416254669],[13.345971054,52.415441869],[13.342741456,52.414164328],[13.34309237,52.413299744],[13.343066852,52.412236548],[13.343306777,52.411718586],[13.34305488,52.407683819],[13.35086118,52.402885372],[13.352527909,52.402086728],[13.354411041,52.400970427],[13.357632143,52.399432972],[13.359306778,52.398499448],[13.362437827,52.397220472],[13.364218682,52.396675343],[13.371947977,52.393795792],[13.370354297,52.388424508],[13.375091093,52.388193836],[13.378698716,52.388155625],[13.385099718,52.388442078],[13.387299312,52.388572368],[13.387986862,52.384178293],[13.388222589,52.38212797],[13.38808227,52.381730468],[13.388237296,52.381030705],[13.388089152,52.379357953],[13.388427618,52.377858729],[13.39512369,52.37760872],[13.397119476,52.377581159],[13.400714074,52.377331959],[13.404131561,52.376982442],[13.407180618,52.376845372],[13.409883824,52.37658345],[13.4128325,52.376873704],[13.412639444,52.376407836],[13.420809543,52.376136564],[13.422274996,52.378373238],[13.427454876,52.385779151],[13.427415227,52.386431529],[13.426981475,52.387840832],[13.425826341,52.390580757],[13.424472957,52.393598025],[13.421004621,52.401205666],[13.41841758,52.40707579],[13.418287185,52.407930202],[13.41848082,52.409250699],[13.418744856,52.409977294],[13.419583,52.410182764],[13.419674146,52.410489372],[13.418160534,52.410795857],[13.414266263,52.412312183],[13.411484682,52.41313753],[13.409965325,52.413386385],[13.408466023,52.413439346],[13.406071473,52.413242586],[13.402502945,52.412708353],[13.399493819,52.418016479],[13.400117558,52.418771664],[13.404813376,52.420000069],[13.405467471,52.421762696],[13.402599107,52.422159004],[13.405135661,52.425499662],[13.406091973,52.427111873],[13.406540106,52.428638656],[13.406866377,52.43013825],[13.408865573,52.433180362],[13.409154569,52.434209874],[13.41037726,52.436142465],[13.410567852,52.437460267],[13.411258216,52.439122272],[13.41249991,52.442339074],[13.41397964,52.445944516],[13.414765784,52.447009954],[13.415102936,52.448473593],[13.415728669,52.449264641],[13.416074236,52.45082445],[13.416835334,52.452236714],[13.417679825,52.452200464],[13.41965692,52.454678877],[13.420757116,52.456284023],[13.421194802,52.456749396],[13.422113167,52.456662019],[13.424943834,52.456596783],[13.426565978,52.456698392],[13.424925413,52.457730871],[13.424369592,52.45799503],[13.4206074,52.459366196],[13.421422334,52.460653608],[13.423230148,52.460402407],[13.423008188,52.461317768],[13.421971518,52.461515483],[13.422136103,52.462510594],[13.421706331,52.463495688],[13.42154102,52.465825648],[13.416875662,52.465395716],[13.415778243,52.470308853],[13.413487702,52.478708178],[13.410936566,52.477901046],[13.410881517,52.477721212],[13.406621084,52.478232795],[13.406801934,52.4788604],[13.406237651,52.480154327],[13.406062766,52.480984369],[13.406393863,52.482769735],[13.40404797,52.483273091],[13.40022643,52.48390479],[13.394638105,52.48402517],[13.394246189,52.484094496],[13.39425061,52.485770515],[13.386289424,52.485825605],[13.386266703,52.48486219],[13.371568002,52.48494914],[13.371641725,52.485182952],[13.374017674,52.485169177],[13.37416359,52.487710015],[13.373540289,52.487988084],[13.374728188,52.489379141],[13.375397891,52.48943314],[13.375472883,52.490453729],[13.376402526,52.491433252],[13.376429857,52.491675907],[13.371066456,52.492756557],[13.371072286,52.492911905],[13.369236643,52.493278896],[13.368212739,52.493329998],[13.368580109,52.493954472],[13.368410697,52.494473531],[13.368676364,52.497384883],[13.369598316,52.498108516],[13.369527623,52.49886863]]]]},"properties":{"gebietstyp":"BEZIRK","parentNr":"1100","gebietNr":"07","name":"Tempelhof-Schöneberg","gebietId":"BEZIRK_07"},"id":"id","type":"Feature"},{"type":"Feature","geometry":{"type":"MultiPolygon","coordinates":[[[[13.439657767,52.489908454],[13.439251102,52.489641806],[13.438268972,52.490374455],[13.43094178,52.492699987],[13.422834961,52.495338258],[13.420482626,52.495857205],[13.420790672,52.495474012],[13.425409369,52.488085055],[13.424938195,52.487783201],[13.423678732,52.486356665],[13.420842682,52.487166854],[13.407885679,52.488859159],[13.40790377,52.488476362],[13.408527196,52.487142097],[13.407189352,52.485898567],[13.406762922,52.485213892],[13.406393863,52.482769735],[13.406062766,52.480984369],[13.406237651,52.480154327],[13.406801934,52.4788604],[13.406621084,52.478232795],[13.410881517,52.477721212],[13.410936566,52.477901046],[13.413487702,52.478708178],[13.415778243,52.470308853],[13.416875662,52.465395716],[13.42154102,52.465825648],[13.421706331,52.463495688],[13.422136103,52.462510594],[13.421971518,52.461515483],[13.423008188,52.461317768],[13.423230148,52.460402407],[13.421422334,52.460653608],[13.4206074,52.459366196],[13.424369592,52.45799503],[13.424925413,52.457730871],[13.426565978,52.456698392],[13.424943834,52.456596783],[13.422113167,52.456662019],[13.421194802,52.456749396],[13.420757116,52.456284023],[13.41965692,52.454678877],[13.417679825,52.452200464],[13.416835334,52.452236714],[13.416074236,52.45082445],[13.415728669,52.449264641],[13.415102936,52.448473593],[13.414765784,52.447009954],[13.41397964,52.445944516],[13.41249991,52.442339074],[13.411258216,52.439122272],[13.410567852,52.437460267],[13.41037726,52.436142465],[13.409154569,52.434209874],[13.408865573,52.433180362],[13.406866377,52.43013825],[13.406540106,52.428638656],[13.406091973,52.427111873],[13.405135661,52.425499662],[13.402599107,52.422159004],[13.405467471,52.421762696],[13.404813376,52.420000069],[13.400117558,52.418771664],[13.399493819,52.418016479],[13.402502945,52.412708353],[13.406071473,52.413242586],[13.408466023,52.413439346],[13.409965325,52.413386385],[13.411484682,52.41313753],[13.414266263,52.412312183],[13.418160534,52.410795857],[13.419674146,52.410489372],[13.419583,52.410182764],[13.421776878,52.410531677],[13.424693587,52.411252939],[13.427953177,52.411892028],[13.431933306,52.412515204],[13.43536015,52.413565745],[13.438665117,52.414421863],[13.440609631,52.414820049],[13.44705759,52.416683768],[13.447902258,52.417156852],[13.451931572,52.418474939],[13.454686615,52.419452241],[13.457222596,52.420090366],[13.459459399,52.420568049],[13.463545265,52.421077911],[13.468018015,52.420032806],[13.468795571,52.418246124],[13.471009137,52.414059438],[13.473172854,52.41056552],[13.474180291,52.408630178],[13.475819574,52.406239106],[13.477033563,52.403990364],[13.47760703,52.403427618],[13.477605013,52.402717661],[13.478949741,52.399979283],[13.479170388,52.398576723],[13.479760899,52.395944322],[13.483544952,52.396934816],[13.486741556,52.397449092],[13.490557375,52.397756401],[13.492071116,52.398061888],[13.495028453,52.39856758],[13.497539998,52.398809397],[13.500707502,52.399327747],[13.50574227,52.399903647],[13.511743039,52.400815477],[13.513878266,52.401219234],[13.515999901,52.401785601],[13.515984215,52.402182801],[13.516975821,52.402837059],[13.516649879,52.403331029],[13.518766847,52.404662114],[13.519049314,52.405121594],[13.520703961,52.406291361],[13.521784187,52.407441726],[13.522337044,52.408541293],[13.523204608,52.410811207],[13.522932204,52.411039232],[13.523478883,52.411668781],[13.523011934,52.412133888],[13.523222343,52.412652607],[13.524062259,52.413590653],[13.522626563,52.414150176],[13.522259961,52.414427545],[13.522958602,52.41544905],[13.522495218,52.416252958],[13.522138715,52.417224111],[13.522119693,52.418431013],[13.520842706,52.41954244],[13.520501539,52.420834427],[13.519910879,52.421345243],[13.519481485,52.421419446],[13.518645985,52.422262543],[13.518434201,52.422909395],[13.519604535,52.424628718],[13.520424233,52.426089797],[13.520502538,52.426539203],[13.519993468,52.426713989],[13.515850068,52.426990579],[13.514022161,52.427217122],[13.51139527,52.427709769],[13.508685212,52.428495241],[13.505966851,52.429593381],[13.498533426,52.43320454],[13.497971387,52.433336036],[13.497086052,52.433909321],[13.495074682,52.434884855],[13.494438911,52.435077361],[13.489379084,52.437541146],[13.48897522,52.437849819],[13.484807316,52.439877688],[13.484270113,52.44002083],[13.479136947,52.442528122],[13.478160002,52.443102048],[13.476675125,52.443832592],[13.476162855,52.443973931],[13.46613884,52.44882795],[13.46472687,52.449624943],[13.463760937,52.450310201],[13.462560674,52.451506468],[13.461424404,52.452879851],[13.459029393,52.456445095],[13.457546888,52.458277167],[13.456972727,52.459151648],[13.457335786,52.459234846],[13.471791354,52.458855643],[13.474967899,52.458762702],[13.474975761,52.459471761],[13.475794699,52.460912474],[13.477196067,52.461990856],[13.478547366,52.463980408],[13.478335714,52.46522929],[13.476348783,52.467129261],[13.474969353,52.468188825],[13.470973242,52.47203164],[13.469793587,52.473331435],[13.469604336,52.473992602],[13.470381555,52.476019223],[13.470571222,52.47690376],[13.461158009,52.483535697],[13.461179472,52.483700183],[13.458134674,52.48581943],[13.456065134,52.484252789],[13.45044377,52.487147237],[13.45032331,52.48708415],[13.44676204,52.488954302],[13.44444369,52.487455378],[13.439657767,52.489908454]]]]},"properties":{"gebietstyp":"BEZIRK","parentNr":"1100","gebietNr":"08","name":"Neukölln","gebietId":"BEZIRK_08"},"id":"id","type":"Feature"},{"type":"Feature","geometry":{"type":"MultiPolygon","coordinates":[[[[13.490704766,52.487441179],[13.488499787,52.487834936],[13.487550417,52.487787992],[13.485945571,52.487400568],[13.482954249,52.486045384],[13.482051714,52.487441706],[13.481681584,52.487633568],[13.480055361,52.48793711],[13.479234141,52.487869589],[13.47863044,52.48703128],[13.477914664,52.488004534],[13.477683857,52.488782487],[13.476128209,52.489954173],[13.473786632,52.491032263],[13.471015769,52.491486071],[13.468492228,52.492339151],[13.467055516,52.492684106],[13.464213065,52.493739762],[13.46319688,52.494213756],[13.463965479,52.495001145],[13.463838256,52.495163628],[13.461934388,52.495584263],[13.459496921,52.496539718],[13.455070368,52.497420363],[13.45406415,52.497558193],[13.452671151,52.497574127],[13.451488208,52.497346817],[13.450906085,52.497105113],[13.447880565,52.494844938],[13.44742193,52.494662714],[13.445766827,52.494706926],[13.444955326,52.494406428],[13.440815355,52.491200758],[13.439890391,52.490599893],[13.439657767,52.489908454],[13.44444369,52.487455378],[13.44676204,52.488954302],[13.45032331,52.48708415],[13.45044377,52.487147237],[13.456065134,52.484252789],[13.458134674,52.48581943],[13.461179472,52.483700183],[13.461158009,52.483535697],[13.470571222,52.47690376],[13.470381555,52.476019223],[13.469604336,52.473992602],[13.469793587,52.473331435],[13.470973242,52.47203164],[13.474969353,52.468188825],[13.476348783,52.467129261],[13.478335714,52.46522929],[13.478547366,52.463980408],[13.477196067,52.461990856],[13.475794699,52.460912474],[13.474975761,52.459471761],[13.474967899,52.458762702],[13.471791354,52.458855643],[13.457335786,52.459234846],[13.456972727,52.459151648],[13.457546888,52.458277167],[13.459029393,52.456445095],[13.461424404,52.452879851],[13.462560674,52.451506468],[13.463760937,52.450310201],[13.46472687,52.449624943],[13.46613884,52.44882795],[13.476162855,52.443973931],[13.476675125,52.443832592],[13.478160002,52.443102048],[13.479136947,52.442528122],[13.484270113,52.44002083],[13.484807316,52.439877688],[13.48897522,52.437849819],[13.489379084,52.437541146],[13.494438911,52.435077361],[13.495074682,52.434884855],[13.497086052,52.433909321],[13.497971387,52.433336036],[13.498533426,52.43320454],[13.505966851,52.429593381],[13.508685212,52.428495241],[13.51139527,52.427709769],[13.514022161,52.427217122],[13.515850068,52.426990579],[13.519993468,52.426713989],[13.520502538,52.426539203],[13.520424233,52.426089797],[13.519604535,52.424628718],[13.518434201,52.422909395],[13.518645985,52.422262543],[13.519481485,52.421419446],[13.519910879,52.421345243],[13.520501539,52.420834427],[13.520842706,52.41954244],[13.522119693,52.418431013],[13.522138715,52.417224111],[13.522495218,52.416252958],[13.522958602,52.41544905],[13.522259961,52.414427545],[13.522626563,52.414150176],[13.524062259,52.413590653],[13.523222343,52.412652607],[13.523011934,52.412133888],[13.523478883,52.411668781],[13.522932204,52.411039232],[13.523204608,52.410811207],[13.522337044,52.408541293],[13.521784187,52.407441726],[13.520703961,52.406291361],[13.519049314,52.405121594],[13.518766847,52.404662114],[13.516649879,52.403331029],[13.516975821,52.402837059],[13.515984215,52.402182801],[13.515999901,52.401785601],[13.517136221,52.401550303],[13.518627167,52.40108975],[13.521807813,52.400574965],[13.522815447,52.400055518],[13.524594752,52.399374965],[13.526394034,52.398929856],[13.52969881,52.397300599],[13.533687095,52.398867493],[13.535055537,52.399262177],[13.537049207,52.399987132],[13.538427496,52.400633413],[13.538206963,52.399973621],[13.537074772,52.398244616],[13.536302867,52.397820752],[13.536689023,52.397207247],[13.535829914,52.395616826],[13.535101629,52.393304858],[13.534833766,52.391421913],[13.534820429,52.390768561],[13.535486553,52.388990582],[13.545369341,52.38872995],[13.551593118,52.388512069],[13.553680493,52.388399236],[13.560615089,52.38817772],[13.56415644,52.388134699],[13.565767286,52.388450074],[13.568018525,52.388793601],[13.57072049,52.389330516],[13.5743579,52.390110427],[13.575615108,52.390235889],[13.581658528,52.391222379],[13.585400599,52.391981321],[13.587823871,52.39251595],[13.590603913,52.393356189],[13.592693921,52.393812432],[13.594090389,52.392543882],[13.59423025,52.392115248],[13.593986761,52.391631692],[13.593672178,52.389959158],[13.594319231,52.388920458],[13.595005149,52.38895569],[13.595245128,52.388160419],[13.594941743,52.387233798],[13.596119088,52.385978644],[13.598986409,52.385404183],[13.599385899,52.385403376],[13.600479258,52.384314415],[13.60139005,52.383938062],[13.60299588,52.382838401],[13.603707297,52.381661263],[13.604848741,52.380942528],[13.605426155,52.380375562],[13.606394493,52.379117572],[13.60632864,52.378610703],[13.605466939,52.377969793],[13.606504223,52.376750456],[13.606804102,52.37602437],[13.606576992,52.374920748],[13.605812577,52.37362112],[13.607368847,52.373972764],[13.612153609,52.37564768],[13.620295444,52.378449567],[13.628510277,52.381349747],[13.633235362,52.376239644],[13.642677697,52.377505852],[13.642830854,52.37474687],[13.642841792,52.372580139],[13.642530092,52.371429866],[13.642095269,52.370806238],[13.643536936,52.370464535],[13.646828533,52.370151264],[13.646866149,52.368950614],[13.647262111,52.368015911],[13.647188233,52.367017485],[13.646942621,52.366076604],[13.646099588,52.365270627],[13.644734111,52.364801736],[13.643737108,52.364265372],[13.641142741,52.36309474],[13.640241039,52.361930152],[13.639082565,52.360977676],[13.638431943,52.359732166],[13.638714965,52.35875077],[13.638297829,52.357746081],[13.638092025,52.356568822],[13.637790436,52.348210155],[13.636700084,52.348141058],[13.636318239,52.346811931],[13.636824127,52.345224802],[13.63716297,52.344727796],[13.638700336,52.343189986],[13.640856856,52.341881247],[13.642816402,52.33993802],[13.644494874,52.339913508],[13.64550382,52.338782796],[13.6474373,52.338267515],[13.64884433,52.338336452],[13.650942695,52.338943546],[13.651692717,52.339463728],[13.65114281,52.342595779],[13.652299772,52.343847404],[13.652762539,52.34478014],[13.653627503,52.34589252],[13.655574152,52.347214922],[13.656111638,52.347810618],[13.656007892,52.348472977],[13.656770301,52.349611421],[13.656817926,52.350573904],[13.657085742,52.35161182],[13.657514489,52.35191097],[13.658982419,52.352354524],[13.658963673,52.352806569],[13.659568711,52.353304273],[13.662020414,52.35421123],[13.661947271,52.354510515],[13.662684517,52.355078261],[13.662382675,52.355698448],[13.663148488,52.357052533],[13.664166274,52.357777451],[13.664901941,52.358122308],[13.666200923,52.358085928],[13.665750206,52.359622835],[13.666160543,52.360515093],[13.666342064,52.361588063],[13.66663481,52.362277256],[13.667172719,52.362969958],[13.66847599,52.364206091],[13.668909308,52.364470149],[13.669898973,52.364690864],[13.670413376,52.365284704],[13.670914944,52.366240717],[13.671815432,52.366779584],[13.674417516,52.367342026],[13.676135903,52.367954215],[13.677422707,52.368572858],[13.67840416,52.36918713],[13.679207559,52.369442897],[13.680116338,52.369418221],[13.682148585,52.369637453],[13.682828192,52.369505922],[13.684749137,52.368812997],[13.68668271,52.367732701],[13.687234139,52.367304644],[13.688927026,52.367409802],[13.689984705,52.367849591],[13.691276554,52.367774296],[13.692012322,52.367932056],[13.693081191,52.367974593],[13.692675781,52.368818687],[13.693221515,52.369509467],[13.695086495,52.370699152],[13.696436554,52.372104798],[13.697037776,52.372542098],[13.697383657,52.373060432],[13.697964199,52.373406972],[13.698711321,52.374150626],[13.69921327,52.374907009],[13.699955927,52.375586851],[13.700616454,52.377189689],[13.700404055,52.377503463],[13.699418732,52.37750947],[13.699285473,52.377734224],[13.697201252,52.37743893],[13.698098091,52.379919652],[13.698806421,52.38111986],[13.698300352,52.381482339],[13.695180254,52.380954879],[13.694280525,52.381283421],[13.689726339,52.38325048],[13.687907745,52.382953981],[13.68730904,52.383315563],[13.687057203,52.38387737],[13.686117407,52.383988389],[13.686822698,52.3853037],[13.687586252,52.385176591],[13.688028867,52.386061066],[13.689074094,52.385204566],[13.690084706,52.38530198],[13.690895927,52.385638544],[13.694171625,52.387844766],[13.695421704,52.388870334],[13.695978563,52.388980544],[13.696831602,52.38968011],[13.697506087,52.389854049],[13.697745957,52.391040164],[13.698287619,52.391720136],[13.699036832,52.391757421],[13.698511334,52.391088226],[13.698777843,52.390580307],[13.70017421,52.391133927],[13.701216011,52.392207194],[13.701869592,52.393010198],[13.702557661,52.393354848],[13.703568136,52.393249045],[13.704529248,52.393476676],[13.705449801,52.394018865],[13.7065564,52.395073168],[13.707881575,52.395128876],[13.709163469,52.39560608],[13.709725941,52.396292276],[13.710063501,52.396119489],[13.711372926,52.397134959],[13.712547941,52.3977515],[13.713595972,52.398027522],[13.714126587,52.398898846],[13.715145479,52.399279121],[13.715835373,52.399700977],[13.716778634,52.399720927],[13.717564476,52.398921399],[13.718796731,52.398741602],[13.719840518,52.3990661],[13.72279172,52.398226154],[13.724642743,52.398845612],[13.725442413,52.399702279],[13.7262913,52.399566761],[13.727066141,52.399822225],[13.72761792,52.400185716],[13.728224032,52.399894023],[13.729466175,52.400183215],[13.729788319,52.399719216],[13.730289188,52.399665754],[13.731305366,52.40007465],[13.732513656,52.40094079],[13.733169661,52.401242153],[13.734267882,52.40213174],[13.734160625,52.403339659],[13.735360206,52.40598156],[13.737973178,52.406715131],[13.738648976,52.407240214],[13.738145383,52.407991086],[13.737620583,52.408496638],[13.736881433,52.409674597],[13.736069813,52.410088745],[13.734601142,52.410443281],[13.734083149,52.410754696],[13.733505848,52.412067287],[13.731092809,52.414574059],[13.730223213,52.415396216],[13.729806553,52.416341986],[13.73044341,52.417787392],[13.73139908,52.419155223],[13.731413661,52.419724969],[13.731046558,52.420499951],[13.731258428,52.420586935],[13.737656019,52.426690247],[13.739494427,52.426426086],[13.739615578,52.426662321],[13.740766023,52.426416772],[13.741272626,52.42676137],[13.741595047,52.428071319],[13.74132212,52.42827109],[13.738931699,52.428861127],[13.739370025,52.42952213],[13.74009947,52.432472666],[13.734141944,52.433101936],[13.731647808,52.433509489],[13.729699259,52.433977622],[13.727219227,52.434807444],[13.725225948,52.435703309],[13.724149448,52.436290139],[13.722806653,52.436822359],[13.722804399,52.437137794],[13.724418993,52.436497509],[13.726569198,52.435399323],[13.728105804,52.434785115],[13.731426477,52.433799058],[13.734233729,52.433358872],[13.738184919,52.43295888],[13.738279843,52.433285007],[13.742888333,52.432930963],[13.74324147,52.434700996],[13.74407235,52.438064792],[13.750515233,52.441475833],[13.756303857,52.44161339],[13.754452818,52.436686206],[13.759884504,52.436178728],[13.760971777,52.43735565],[13.760923368,52.437876935],[13.755313652,52.438417007],[13.756518507,52.441594281],[13.757081369,52.442960536],[13.754366026,52.443277147],[13.756431968,52.446169504],[13.755384308,52.446000805],[13.75501525,52.446539511],[13.753811833,52.447441283],[13.752612889,52.447866743],[13.75025354,52.448323969],[13.74923375,52.448667428],[13.746450206,52.448934501],[13.744774258,52.449233654],[13.743290856,52.448934078],[13.740775216,52.449303201],[13.737856425,52.449634907],[13.73647158,52.449916592],[13.735613434,52.450256187],[13.735558421,52.450613009],[13.734345246,52.45073904],[13.732702808,52.450355902],[13.729067785,52.450783293],[13.720572838,52.456750345],[13.718922355,52.458900364],[13.717597264,52.460535172],[13.716177079,52.462483672],[13.71596462,52.46291699],[13.714718656,52.463030263],[13.713354678,52.462989938],[13.711538191,52.463286026],[13.705699673,52.46555114],[13.703529777,52.466624687],[13.701911289,52.467532489],[13.70125472,52.468223981],[13.699079971,52.468281059],[13.700656794,52.466168213],[13.702089799,52.464361882],[13.702560287,52.463307444],[13.702965602,52.461162964],[13.703353541,52.460047467],[13.70525696,52.459869172],[13.705582622,52.457696876],[13.705231732,52.455616697],[13.704624132,52.454753483],[13.70149251,52.454866954],[13.698346616,52.455259837],[13.698681064,52.456480921],[13.698480848,52.457293438],[13.69768987,52.458505322],[13.697528269,52.460477993],[13.69708449,52.461731],[13.695439033,52.464184435],[13.69411222,52.464404479],[13.690975797,52.464741442],[13.689838818,52.465008963],[13.688386594,52.46502052],[13.686565192,52.465132899],[13.682774651,52.466065792],[13.6801724,52.467825696],[13.678636381,52.469235495],[13.676406449,52.470012909],[13.675241702,52.470657741],[13.673373597,52.471387318],[13.670075985,52.47308976],[13.668935801,52.473440656],[13.667549779,52.473735012],[13.667238291,52.474283305],[13.665722166,52.473948621],[13.663836722,52.473658069],[13.662647709,52.473755498],[13.661504464,52.474045215],[13.658361679,52.474998695],[13.656812648,52.475967866],[13.655463515,52.476643104],[13.65232475,52.477459826],[13.648304481,52.478728661],[13.645775959,52.478870197],[13.643216591,52.479220173],[13.642567327,52.478703534],[13.636146713,52.476144856],[13.631041166,52.475023644],[13.629438434,52.474098975],[13.628178671,52.473541831],[13.625341336,52.473696415],[13.624796979,52.470140395],[13.624707264,52.469054807],[13.625207583,52.468742976],[13.622903235,52.468780678],[13.622607533,52.468059041],[13.623374266,52.466710166],[13.622754822,52.466449537],[13.621381976,52.466636412],[13.621952845,52.467003987],[13.621917371,52.468484087],[13.621021241,52.468494836],[13.621162256,52.470462019],[13.617121241,52.47120138],[13.615071741,52.469711219],[13.613492648,52.470228691],[13.611497111,52.47062567],[13.611311748,52.47047557],[13.608149146,52.471089817],[13.608373563,52.472852132],[13.604903453,52.47290458],[13.603063986,52.472788307],[13.599893183,52.474327057],[13.597331609,52.475628625],[13.595254193,52.476789174],[13.593929167,52.477392723],[13.591552731,52.478641193],[13.588921484,52.479941659],[13.586343187,52.481115372],[13.581872727,52.479968886],[13.579709443,52.481023087],[13.577914461,52.480363647],[13.575117285,52.479480061],[13.574441899,52.477519729],[13.573838499,52.476966763],[13.57151926,52.475988174],[13.567778078,52.474549216],[13.567053461,52.473867668],[13.565669705,52.473598728],[13.565126942,52.473954759],[13.563094241,52.473465184],[13.560867586,52.473259714],[13.55734561,52.473288947],[13.555051702,52.473611276],[13.552590389,52.473650167],[13.55153232,52.473622544],[13.549186093,52.473861882],[13.547991103,52.473864693],[13.548477733,52.473309639],[13.542238204,52.473965895],[13.539906478,52.475028237],[13.534915217,52.471138664],[13.531440901,52.468386914],[13.530766478,52.467934342],[13.527436237,52.470698602],[13.525578351,52.472327215],[13.523666097,52.473861392],[13.522426333,52.474750889],[13.521580476,52.47521655],[13.520313166,52.474067828],[13.516881229,52.475257236],[13.515511699,52.475592962],[13.514500357,52.47570075],[13.512965461,52.475659749],[13.507856219,52.474904364],[13.504322595,52.478122491],[13.501887418,52.482575536],[13.500594733,52.482685606],[13.497852218,52.48328207],[13.496637776,52.483305006],[13.494178673,52.483118951],[13.493616795,52.484446546],[13.492739737,52.48581602],[13.491215054,52.48713532],[13.490704766,52.487441179]]]]},"properties":{"gebietstyp":"BEZIRK","parentNr":"1100","gebietNr":"09","name":"Treptow-Köpenick","gebietId":"BEZIRK_09"},"id":"id","type":"Feature"},{"type":"Feature","geometry":{"type":"MultiPolygon","coordinates":[[[[13.611497111,52.47062567],[13.611366135,52.470649019],[13.616483213,52.474827439],[13.615449968,52.475296453],[13.61354549,52.475613493],[13.614890732,52.480761174],[13.629711985,52.49303199],[13.627487353,52.493307026],[13.625836894,52.493600895],[13.62399941,52.49419579],[13.624445483,52.495041437],[13.625755843,52.49705355],[13.626764463,52.499068343],[13.627207707,52.500374985],[13.628132834,52.503547013],[13.628894574,52.505550434],[13.629502367,52.506718545],[13.632056579,52.510322048],[13.633136406,52.511709512],[13.634177959,52.512845344],[13.63577346,52.514213875],[13.637367524,52.515316382],[13.639645252,52.516679402],[13.641407479,52.517907648],[13.642455105,52.518549146],[13.646934437,52.520618044],[13.655021595,52.523919799],[13.655739342,52.524275488],[13.658500121,52.525942666],[13.65809083,52.526378624],[13.657555476,52.527746514],[13.656908602,52.52983515],[13.653124551,52.529773164],[13.650982065,52.529803287],[13.648537404,52.529636623],[13.646250521,52.529676573],[13.643680785,52.529887263],[13.64167399,52.530317996],[13.640621914,52.53041698],[13.636756826,52.530501859],[13.634400618,52.530471491],[13.631556684,52.530566011],[13.626776486,52.530159938],[13.626007298,52.530397183],[13.625686069,52.530182405],[13.624806242,52.533577498],[13.625742003,52.534038513],[13.624816391,52.538105794],[13.625737523,52.537774199],[13.627537014,52.537483032],[13.628385919,52.537633094],[13.628854602,52.53797547],[13.630581859,52.537619555],[13.631607659,52.537999642],[13.633945044,52.537650838],[13.634901641,52.538221414],[13.637648031,52.540925218],[13.637213558,52.542263348],[13.635447786,52.542302139],[13.634388114,52.542823433],[13.62610298,52.543587561],[13.61871378,52.544211879],[13.613656222,52.545044494],[13.587410078,52.54945024],[13.586547403,52.54975729],[13.586408627,52.549980108],[13.586905907,52.551092799],[13.586911327,52.551623002],[13.587541477,52.552564093],[13.587769321,52.55332622],[13.587758099,52.55435247],[13.587599223,52.555621306],[13.587351005,52.55620804],[13.586890535,52.556713825],[13.586348397,52.55783695],[13.584694159,52.559275111],[13.584429669,52.559853745],[13.584316232,52.561287043],[13.583834253,52.5625944],[13.583933401,52.563759977],[13.583166625,52.565210112],[13.583192153,52.566243562],[13.583433527,52.566739701],[13.58336182,52.567676961],[13.58209098,52.570173823],[13.5815399,52.57110461],[13.577888005,52.571124738],[13.576964008,52.572901514],[13.575073729,52.573769961],[13.574682787,52.573834588],[13.571407561,52.573236414],[13.569079876,52.573363816],[13.568571351,52.573102064],[13.568269549,52.57378758],[13.567703665,52.574506215],[13.566747593,52.573608892],[13.566465323,52.572928477],[13.564407302,52.572193227],[13.560609264,52.571244008],[13.549630088,52.568665484],[13.545732253,52.567789412],[13.544617425,52.566933139],[13.543916027,52.566617229],[13.54251435,52.56618849],[13.541202161,52.566015913],[13.539775285,52.564927519],[13.53592665,52.56189801],[13.533949439,52.560386762],[13.529418487,52.5575587],[13.525354141,52.555317678],[13.526299293,52.553989384],[13.526928484,52.552840548],[13.527484326,52.551515512],[13.528196607,52.549437537],[13.52949858,52.545968937],[13.530007472,52.544469512],[13.530447269,52.54354606],[13.530990676,52.541734827],[13.531894515,52.539525778],[13.531575453,52.539171457],[13.531589953,52.538598131],[13.53059396,52.538456243],[13.527843815,52.537800671],[13.523710046,52.536442899],[13.522396189,52.536135315],[13.519259644,52.53570746],[13.516882927,52.535547125],[13.518182629,52.533796855],[13.518613673,52.532895005],[13.519039164,52.528825413],[13.519152369,52.527115388],[13.519116492,52.526116956],[13.519289641,52.525804383],[13.519434382,52.523841864],[13.51919697,52.520901268],[13.518952535,52.518436948],[13.518741334,52.514440458],[13.518757075,52.514027093],[13.519302406,52.513894586],[13.522018737,52.513839495],[13.52369778,52.513911056],[13.52473652,52.513790634],[13.526162399,52.513779266],[13.52958012,52.513604174],[13.530191107,52.513742165],[13.533981361,52.513620266],[13.535723371,52.5131624],[13.536909043,52.512470441],[13.537580617,52.511784376],[13.537826514,52.511092598],[13.537846539,52.509923467],[13.536212996,52.509992331],[13.536296726,52.507941671],[13.536123021,52.507900201],[13.536296927,52.506403178],[13.53601498,52.506003963],[13.535198558,52.505548619],[13.539490612,52.498544145],[13.542144587,52.498248602],[13.544083236,52.496207306],[13.543916344,52.495694952],[13.54444975,52.495478745],[13.544840492,52.493199378],[13.546252828,52.491763111],[13.54782259,52.489103222],[13.550138687,52.485489412],[13.550205459,52.48518391],[13.549887308,52.484448598],[13.549103975,52.483739045],[13.548276012,52.482480375],[13.547909443,52.482511586],[13.547880469,52.47977873],[13.548450082,52.479775511],[13.55085395,52.477013674],[13.552044245,52.473745983],[13.552590389,52.473650167],[13.555051702,52.473611276],[13.55734561,52.473288947],[13.560867586,52.473259714],[13.563094241,52.473465184],[13.565126942,52.473954759],[13.565669705,52.473598728],[13.567053461,52.473867668],[13.567778078,52.474549216],[13.57151926,52.475988174],[13.573838499,52.476966763],[13.574441899,52.477519729],[13.575117285,52.479480061],[13.577914461,52.480363647],[13.579709443,52.481023087],[13.581872727,52.479968886],[13.586343187,52.481115372],[13.588921484,52.479941659],[13.591552731,52.478641193],[13.593929167,52.477392723],[13.595254193,52.476789174],[13.597331609,52.475628625],[13.599893183,52.474327057],[13.603063986,52.472788307],[13.604903453,52.47290458],[13.608373563,52.472852132],[13.608149146,52.471089817],[13.611311748,52.47047557],[13.611497111,52.47062567]]]]},"properties":{"gebietstyp":"BEZIRK","parentNr":"1100","gebietNr":"10","name":"Marzahn-Hellersdorf","gebietId":"BEZIRK_10"},"id":"id","type":"Feature"},{"type":"Feature","geometry":{"type":"MultiPolygon","coordinates":[[[[13.567703665,52.574506215],[13.566898472,52.575470057],[13.566500725,52.576171696],[13.565206908,52.577355445],[13.564522739,52.578199812],[13.563328049,52.579102317],[13.56205332,52.580229426],[13.559511936,52.581897694],[13.555486712,52.584149142],[13.5526814,52.585432485],[13.550180302,52.58646254],[13.546982393,52.587645744],[13.547206066,52.587977492],[13.541679638,52.589142796],[13.534026965,52.590857068],[13.527689235,52.592234957],[13.527177208,52.592229138],[13.522874554,52.592749359],[13.514616298,52.592403061],[13.508143412,52.592150545],[13.505174582,52.596463933],[13.501818412,52.595121463],[13.489039231,52.590079516],[13.488408437,52.589785583],[13.486946442,52.588839509],[13.486005187,52.58801432],[13.485361881,52.58722474],[13.484644618,52.585616797],[13.484327344,52.585636187],[13.483563737,52.584075228],[13.481973554,52.584001408],[13.481612883,52.583314407],[13.480473234,52.583525087],[13.480008334,52.582248443],[13.479730174,52.581164339],[13.479733919,52.579600707],[13.479943258,52.579200173],[13.480210122,52.577913649],[13.47998811,52.577693207],[13.479913102,52.57541416],[13.480075193,52.575020755],[13.479790733,52.574511772],[13.479459036,52.572692509],[13.482026131,52.572493473],[13.482795609,52.572631003],[13.482923282,52.571474605],[13.487586752,52.569216487],[13.483594088,52.566115913],[13.484107771,52.565970052],[13.484097137,52.565610583],[13.483676269,52.564423867],[13.486067609,52.564150843],[13.485593896,52.562415899],[13.48518447,52.561795346],[13.485396124,52.56155027],[13.486974549,52.561357134],[13.489970675,52.560480854],[13.491073815,52.55994563],[13.491613388,52.55949962],[13.494904422,52.556081287],[13.495529832,52.555002709],[13.495671809,52.553863385],[13.495441443,52.552997735],[13.494414564,52.550795813],[13.490325212,52.551697014],[13.486113967,52.552396633],[13.485676753,52.552193919],[13.482220561,52.549644793],[13.481607853,52.549475998],[13.48008062,52.549468727],[13.4797602,52.549102305],[13.480456197,52.548120269],[13.479644039,52.54754663],[13.469541815,52.547773857],[13.468524503,52.548229915],[13.46736108,52.548319119],[13.46701556,52.54806973],[13.467525416,52.546693019],[13.467700077,52.546241494],[13.468701847,52.54352363],[13.469838386,52.540458518],[13.467310317,52.538494903],[13.467519254,52.538404561],[13.466381941,52.536654259],[13.467803086,52.536122376],[13.468742497,52.534710059],[13.467353591,52.534085436],[13.46695729,52.53405345],[13.464524452,52.533200922],[13.46444271,52.532988729],[13.463387435,52.532632313],[13.463248308,52.532398472],[13.46100244,52.529676041],[13.460672104,52.529355659],[13.456330434,52.528394231],[13.456196852,52.528263734],[13.458178444,52.526397378],[13.459114983,52.525766956],[13.460261632,52.525284201],[13.462753067,52.524503154],[13.466022568,52.524060106],[13.467094565,52.523816224],[13.468581536,52.5232979],[13.470298255,52.522378164],[13.471037025,52.521774345],[13.472107453,52.520692874],[13.472554421,52.520526308],[13.473770396,52.519086448],[13.474196041,52.519115754],[13.476711319,52.515045383],[13.47774351,52.514728563],[13.477483939,52.514387647],[13.475885579,52.514861009],[13.475435312,52.513432478],[13.475631027,52.51305799],[13.476264493,52.510439228],[13.475826201,52.510256244],[13.475415941,52.509631158],[13.473066436,52.507126167],[13.472709957,52.506357475],[13.471746028,52.50573435],[13.471293543,52.505000456],[13.470202317,52.503742702],[13.46887503,52.500156213],[13.46857203,52.499649867],[13.473078759,52.498988101],[13.484143208,52.491657177],[13.484935451,52.49160331],[13.485772981,52.491198114],[13.486086371,52.490797683],[13.488459497,52.489887436],[13.488810405,52.489247997],[13.491451543,52.488265211],[13.490704766,52.487441179],[13.491215054,52.48713532],[13.492739737,52.48581602],[13.493616795,52.484446546],[13.494178673,52.483118951],[13.496637776,52.483305006],[13.497852218,52.48328207],[13.500594733,52.482685606],[13.501887418,52.482575536],[13.504322595,52.478122491],[13.507856219,52.474904364],[13.512965461,52.475659749],[13.514500357,52.47570075],[13.515511699,52.475592962],[13.516881229,52.475257236],[13.520313166,52.474067828],[13.521580476,52.47521655],[13.522426333,52.474750889],[13.523666097,52.473861392],[13.525578351,52.472327215],[13.527436237,52.470698602],[13.530766478,52.467934342],[13.531440901,52.468386914],[13.534915217,52.471138664],[13.539906478,52.475028237],[13.542238204,52.473965895],[13.548477733,52.473309639],[13.547991103,52.473864693],[13.549186093,52.473861882],[13.55153232,52.473622544],[13.552590389,52.473650167],[13.552044245,52.473745983],[13.55085395,52.477013674],[13.548450082,52.479775511],[13.547880469,52.47977873],[13.547909443,52.482511586],[13.548276012,52.482480375],[13.549103975,52.483739045],[13.549887308,52.484448598],[13.550205459,52.48518391],[13.550138687,52.485489412],[13.54782259,52.489103222],[13.546252828,52.491763111],[13.544840492,52.493199378],[13.54444975,52.495478745],[13.543916344,52.495694952],[13.544083236,52.496207306],[13.542144587,52.498248602],[13.539490612,52.498544145],[13.535198558,52.505548619],[13.53601498,52.506003963],[13.536296927,52.506403178],[13.536123021,52.507900201],[13.536296726,52.507941671],[13.536212996,52.509992331],[13.537846539,52.509923467],[13.537826514,52.511092598],[13.537580617,52.511784376],[13.536909043,52.512470441],[13.535723371,52.5131624],[13.533981361,52.513620266],[13.530191107,52.513742165],[13.52958012,52.513604174],[13.526162399,52.513779266],[13.52473652,52.513790634],[13.52369778,52.513911056],[13.522018737,52.513839495],[13.519302406,52.513894586],[13.518757075,52.514027093],[13.518741334,52.514440458],[13.518952535,52.518436948],[13.51919697,52.520901268],[13.519434382,52.523841864],[13.519289641,52.525804383],[13.519116492,52.526116956],[13.519152369,52.527115388],[13.519039164,52.528825413],[13.518613673,52.532895005],[13.518182629,52.533796855],[13.516882927,52.535547125],[13.519259644,52.53570746],[13.522396189,52.536135315],[13.523710046,52.536442899],[13.527843815,52.537800671],[13.53059396,52.538456243],[13.531589953,52.538598131],[13.531575453,52.539171457],[13.531894515,52.539525778],[13.530990676,52.541734827],[13.530447269,52.54354606],[13.530007472,52.544469512],[13.52949858,52.545968937],[13.528196607,52.549437537],[13.527484326,52.551515512],[13.526928484,52.552840548],[13.526299293,52.553989384],[13.525354141,52.555317678],[13.529418487,52.5575587],[13.533949439,52.560386762],[13.53592665,52.56189801],[13.539775285,52.564927519],[13.541202161,52.566015913],[13.54251435,52.56618849],[13.543916027,52.566617229],[13.544617425,52.566933139],[13.545732253,52.567789412],[13.549630088,52.568665484],[13.560609264,52.571244008],[13.564407302,52.572193227],[13.566465323,52.572928477],[13.566747593,52.573608892],[13.567703665,52.574506215]]]]},"properties":{"gebietstyp":"BEZIRK","parentNr":"1100","gebietNr":"11","name":"Lichtenberg","gebietId":"BEZIRK_11"},"id":"id","type":"Feature"},{"type":"Feature","geometry":{"type":"MultiPolygon","coordinates":[[[[13.366935359,52.625348626],[13.365266008,52.625454593],[13.364600162,52.625179037],[13.364741095,52.624823486],[13.363520577,52.624947492],[13.362664867,52.624815287],[13.361844158,52.624267082],[13.360940578,52.624239899],[13.360542894,52.623826529],[13.359555082,52.623810829],[13.358867859,52.623418369],[13.358006133,52.623311278],[13.357557684,52.622994838],[13.357117881,52.623196033],[13.356045838,52.623192693],[13.354940124,52.623619716],[13.354365744,52.623373069],[13.353798,52.623485891],[13.352962915,52.623370737],[13.35248625,52.623085665],[13.351356997,52.622786496],[13.351068218,52.623860602],[13.347081222,52.623615823],[13.343976443,52.623737867],[13.343569485,52.623414283],[13.342849974,52.623470975],[13.342200485,52.623204318],[13.341526304,52.623330306],[13.340570655,52.623140188],[13.338775192,52.623339834],[13.338345274,52.62292092],[13.33790488,52.622973767],[13.336681409,52.622646371],[13.332862783,52.624191623],[13.332549351,52.624026393],[13.329309794,52.625287193],[13.327442089,52.625665313],[13.326185829,52.625814004],[13.323836831,52.62637956],[13.319595055,52.626656208],[13.317349485,52.627195843],[13.314984986,52.627629981],[13.312982875,52.62818545],[13.312328543,52.628198094],[13.308505328,52.627947951],[13.307208659,52.627745862],[13.305346001,52.627595244],[13.302624205,52.627196023],[13.302544794,52.62755077],[13.303048281,52.627766023],[13.304817505,52.628171637],[13.306448303,52.62872962],[13.308818642,52.629141291],[13.309694947,52.629478833],[13.310280401,52.630009698],[13.309683113,52.63009527],[13.309768037,52.630606825],[13.310187379,52.630621425],[13.309712536,52.632157733],[13.309337166,52.632801055],[13.308576816,52.633574544],[13.307796967,52.634588812],[13.306186476,52.636477905],[13.305781251,52.637353883],[13.307062015,52.637546958],[13.306808516,52.638684853],[13.306270007,52.639605404],[13.307303472,52.639687274],[13.307272358,52.640105958],[13.308227205,52.640234337],[13.308153897,52.640768832],[13.308940761,52.641453013],[13.30918214,52.641985656],[13.309030921,52.642671812],[13.309405793,52.64272314],[13.30919604,52.643944729],[13.30843319,52.643813279],[13.303435139,52.6498458],[13.300427672,52.653504007],[13.309969485,52.657350907],[13.309669407,52.657361787],[13.30864066,52.657997962],[13.308835642,52.658215057],[13.30767625,52.658928156],[13.307127354,52.659619528],[13.30408901,52.659387534],[13.302514936,52.659202612],[13.300567899,52.659290728],[13.295523774,52.659300103],[13.293678916,52.659358736],[13.29019315,52.659859316],[13.289030808,52.659950367],[13.287164287,52.659938743],[13.285433537,52.660332766],[13.283313726,52.660580059],[13.282773021,52.660740246],[13.281907663,52.652751527],[13.285131435,52.652627865],[13.285023725,52.651089083],[13.284658556,52.648839632],[13.284466234,52.64659697],[13.283848786,52.641662545],[13.283836803,52.641116137],[13.280777983,52.640848438],[13.276460614,52.640204909],[13.274250113,52.640271144],[13.271975472,52.639864461],[13.269601317,52.639710851],[13.266244692,52.640112266],[13.262152401,52.640682964],[13.262409629,52.639059011],[13.262659731,52.638648202],[13.263776536,52.637392631],[13.264686401,52.635967471],[13.265203408,52.634530323],[13.264231298,52.626861928],[13.263429728,52.627178491],[13.260301569,52.627741295],[13.257011828,52.627664577],[13.255684059,52.627501366],[13.254211992,52.627462599],[13.253236838,52.627341807],[13.25173079,52.627305598],[13.249128658,52.627474367],[13.247996006,52.627294618],[13.24605998,52.627284819],[13.245001591,52.627568082],[13.243305207,52.628188061],[13.242088888,52.628287462],[13.240312841,52.627882687],[13.238702408,52.627792052],[13.235785619,52.627795945],[13.23271344,52.62750629],[13.230398864,52.627385342],[13.228098032,52.627541177],[13.225927183,52.627854669],[13.225877694,52.628260689],[13.225253537,52.628200164],[13.224241449,52.628409709],[13.223004327,52.628196116],[13.22054574,52.628315321],[13.220696665,52.627805409],[13.220301653,52.626923383],[13.22025747,52.626112654],[13.21976207,52.624433185],[13.218180747,52.622342887],[13.216765836,52.620157886],[13.214826681,52.61925611],[13.209633293,52.612296798],[13.206886578,52.609132846],[13.206038974,52.608543023],[13.205028746,52.60813504],[13.20264771,52.607519055],[13.201958969,52.607149041],[13.201629713,52.606546665],[13.201703433,52.605487424],[13.202326544,52.604244131],[13.205085871,52.602028931],[13.206339613,52.600882218],[13.207266139,52.599837678],[13.208189117,52.599006098],[13.211292893,52.596819827],[13.215322982,52.594962905],[13.218116787,52.593192352],[13.218856292,52.59237713],[13.219256438,52.591396284],[13.218873906,52.590480143],[13.217393859,52.587475347],[13.216430602,52.585712458],[13.215358062,52.584757067],[13.215168765,52.584332247],[13.215428601,52.583526162],[13.216159756,52.582960752],[13.2172036,52.58240181],[13.21807984,52.581460355],[13.218305785,52.580959687],[13.218007691,52.579700548],[13.217958009,52.57853932],[13.218855951,52.577156696],[13.220238033,52.576053411],[13.222037599,52.574938057],[13.22391768,52.574201282],[13.225076396,52.573143911],[13.225264223,52.572604458],[13.225178781,52.571785497],[13.225298977,52.571221551],[13.226723294,52.569328418],[13.227042416,52.567808078],[13.228518246,52.566394079],[13.228710587,52.565674006],[13.228557734,52.56512801],[13.227998706,52.564163672],[13.227994904,52.563444737],[13.228325423,52.563098071],[13.230728224,52.561396894],[13.231186826,52.561233075],[13.232010577,52.560637321],[13.233153405,52.559975223],[13.238134395,52.55747994],[13.238950389,52.557243574],[13.238945021,52.557016197],[13.241113803,52.556023978],[13.249003224,52.552101628],[13.250590239,52.551332939],[13.252987512,52.550451763],[13.254243358,52.550127713],[13.256944966,52.549678768],[13.258371401,52.549574477],[13.262766933,52.54946316],[13.270330565,52.549343285],[13.270590815,52.549427643],[13.272086575,52.549313511],[13.283401235,52.549098837],[13.3015138,52.548805794],[13.30376458,52.551455789],[13.309666607,52.557720958],[13.31254515,52.55849518],[13.317282058,52.559637257],[13.319226057,52.559979315],[13.323408573,52.560520306],[13.324966745,52.560800172],[13.32563289,52.561068767],[13.326419142,52.561672858],[13.326794755,52.562381945],[13.330919382,52.562149685],[13.331788286,52.561657595],[13.332236648,52.5618654],[13.337099082,52.564454708],[13.348711175,52.562070549],[13.349089578,52.561927652],[13.356894157,52.562015774],[13.359713132,52.561853214],[13.360094587,52.560471054],[13.36452292,52.56117559],[13.365101456,52.558116973],[13.366656388,52.558226436],[13.369999194,52.559969912],[13.370828997,52.560539653],[13.377145338,52.560660961],[13.378582808,52.566191555],[13.381159392,52.566421583],[13.384296467,52.567712206],[13.384545587,52.567734283],[13.387900128,52.567308841],[13.388396668,52.567666603],[13.389281399,52.568240816],[13.387774676,52.56914391],[13.388260029,52.569475302],[13.38308202,52.572329023],[13.382204166,52.572025762],[13.379687901,52.572522273],[13.379037292,52.573065777],[13.378913522,52.573454203],[13.378158186,52.5736151],[13.375145729,52.575629974],[13.374273039,52.576047786],[13.371176994,52.57728937],[13.368141747,52.578948875],[13.368181286,52.578998387],[13.365278893,52.580605089],[13.364007987,52.581466775],[13.363449068,52.581432285],[13.359214078,52.583773658],[13.358813318,52.584169954],[13.357817604,52.58438607],[13.353324236,52.586898288],[13.352101543,52.587533499],[13.351384351,52.588022495],[13.347555653,52.590081321],[13.350193617,52.590603324],[13.351755076,52.590791178],[13.353690381,52.590897197],[13.355691341,52.590886511],[13.359126726,52.591092016],[13.360647002,52.591267078],[13.367843688,52.597243705],[13.368101151,52.597379961],[13.370145637,52.599077227],[13.371019321,52.600040927],[13.37165711,52.601025011],[13.37426571,52.604764443],[13.375766078,52.606989232],[13.376210725,52.607738083],[13.376352286,52.609319998],[13.376284419,52.611127928],[13.37571583,52.613236744],[13.375224462,52.61422511],[13.374284609,52.615664539],[13.373133993,52.617285036],[13.372448514,52.618374522],[13.371043105,52.620366489],[13.369517079,52.622256631],[13.367907195,52.624071084],[13.367302045,52.625021425],[13.366935359,52.625348626]]]]},"properties":{"gebietstyp":"BEZIRK","parentNr":"1100","gebietNr":"12","name":"Reinickendorf","gebietId":"BEZIRK_12"},"id":"id","type":"Feature"}],"properties":{},"id":"features","type":"FeatureCollection","bbox":null}}